,station_id,name,physical_configuration,lat,lon,altitude,address,capacity,rental_methods,groups,obcn,nearby_distance,post_code,cross_street
0,7000,Fort York  Blvd / Capreol Ct,REGULAR,43.639832,-79.395954,0.0,Fort York  Blvd / Capreol Ct,35,"['KEY', 'CREDITCARD', 'TRANSITCARD', 'PHONE']",[],647-643-9607,500.0,,
1,7001,Lower Jarvis St / The Esplanade,REGULAR,43.647992,-79.370907,0.0,Lower Jarvis St / The Esplanade,15,"['KEY', 'CREDITCARD', 'TRANSITCARD', 'PHONE']",[],416-617-9576,500.0,,
2,7002,St. George St / Bloor St W,REGULAR,43.667333,-79.399429,0.0,St. George St / Bloor St W,19,"['KEY', 'CREDITCARD', 'TRANSITCARD', 'PHONE']",[],647-643-9615,500.0,,
3,7003,Madison Ave / Bloor St W,REGULAR,43.667158,-79.402761,,Madison Ave / Bloor St W,15,"['KEY', 'CREDITCARD', 'TRANSITCARD', 'PHONE']",[],647-631-4587,500.0,,
4,7004,University Ave / Elm St,REGULAR,43.656518,-79.389099,,University Ave / Elm St,11,"['KEY', 'CREDITCARD', 'TRANSITCARD', 'PHONE']",['P7004-7047'],647-643-9673,500.0,,
5,7005,King St W / York St,REGULAR,43.6480008,-79.383177,0.0,King St W / York St,19,"['KEY', 'CREDITCARD', 'TRANSITCARD', 'PHONE']",[],647-643-9693,500.0,,
6,7006,Bay St / College St (East Side),REGULAR,43.660439,-79.385525,0.0,Bay St / College St (East Side),11,"['KEY', 'CREDITCARD', 'TRANSITCARD', 'PHONE']",['P7235-7006'],416-569-2349,500.0,,
7,7007,College St / Huron St,REGULAR,43.658148,-79.398167,0.0,College St / Huron St,19,"['KEY', 'CREDITCARD', 'TRANSITCARD', 'PHONE']",[],647-625-3582,500.0,,
8,7008,Wellesley St / Queen's Park Cres,REGULAR,43.663376,-79.392125,0.0,Wellesley St W / Queen's Park Cres,19,"['KEY', 'CREDITCARD', 'TRANSITCARD', 'PHONE']",[],647-643-9648,500.0,,
9,7009,King St E / Jarvis St,REGULAR,43.650325,-79.372287,0.0,King St E / Jarvis St,25,"['KEY', 'CREDITCARD', 'TRANSITCARD', 'PHONE']",[],647-620-8649,500.0,,
10,7010,King St W / Spadina Ave,REGULAR,43.645323,-79.395003,0.0,King St W / Spadina Ave,19,"['KEY', 'CREDITCARD', 'TRANSITCARD', 'PHONE']",[],647-202-6537,500.0,,
11,7011,Wellington St W / Portland St,REGULAR,43.642982,-79.399256,0.0,Wellington St W / Portland St,11,"['KEY', 'CREDITCARD', 'TRANSITCARD', 'PHONE']",['P7011-7123'],416-624-4001,500.0,,
12,7012,Elizabeth St / Edward St (Bus Terminal),REGULAR,43.656026,-79.385327,0.0,Elizabeth St / Edward St (Bus Terminal),15,"['KEY', 'CREDITCARD', 'TRANSITCARD', 'PHONE']",[],647-643-9665,500.0,,
13,7013,Scott St / The Esplanade,REGULAR,43.64656,-79.375274,0.0,Scott St / The Esplanade,19,"['KEY', 'CREDITCARD', 'TRANSITCARD', 'PHONE']",['P7375-7013'],416-666-6440,500.0,,
14,7014,Sherbourne St / Carlton St (Allan Gardens),REGULAR,43.663102,-79.373181,0.0,Sherbourne St / Carlton St (Allan Gardens),17,"['KEY', 'CREDITCARD', 'TRANSITCARD', 'PHONE']",[],416-710-6764,500.0,,
15,7015,King St W / Bay St (West Side),REGULAR,43.64852,-79.380576,0.0,King St W / Bay St (West Side),19,"['KEY', 'CREDITCARD', 'TRANSITCARD', 'PHONE']",[],416-671-7595,500.0,,
16,7016,Bay St / Queens Quay W (Ferry Terminal),REGULAR,43.640823,-79.376265,0.0,Bay St / Queens Quay W (Ferry Terminal),23,"['KEY', 'CREDITCARD', 'TRANSITCARD', 'PHONE']",[],647-271-1378,500.0,,
17,7017,Widmer St / Adelaide St W,REGULAR,43.6475076,-79.3914841,0.0,Widmer St / Adelaide St W,11,"['KEY', 'CREDITCARD', 'TRANSITCARD', 'PHONE']",['P7017-7102'],647-631-9958,500.0,,
18,7018,Bremner Blvd / Rees St,REGULAR,43.641529,-79.386741,0.0,Bremner Blvd / Rees St,23,"['KEY', 'CREDITCARD', 'TRANSITCARD', 'PHONE']",[],647-669-0947,500.0,,
19,7019,Temperance St. Station,REGULAR,43.6507021,-79.3800546,0.0,Temperance St. Station,19,"['KEY', 'CREDITCARD', 'TRANSITCARD', 'PHONE']",[],647-203-5761,500.0,,
20,7020,Phoebe St / Spadina Ave,REGULAR,43.650033,-79.396555,,Phoebe St / Spadina Ave,33,"['KEY', 'CREDITCARD', 'TRANSITCARD', 'PHONE']",[],647-621-5766,500.0,,
21,7021,Bay St / Albert St,REGULAR,43.653264,-79.382458,0.0,Bay St / Albert St,35,"['KEY', 'CREDITCARD', 'TRANSITCARD', 'PHONE']",[],647-643-9652,500.0,,
22,7022,Simcoe St / Queen St W,REGULAR,43.650858,-79.387582,,Simcoe St / Queen St W,26,"['KEY', 'CREDITCARD', 'TRANSITCARD', 'PHONE']",[],647-625-3265,500.0,,
23,7023,College St / Borden St,REGULAR,43.6571,-79.4056,0.0,College St / Borden St,9,"['KEY', 'CREDITCARD', 'TRANSITCARD', 'PHONE']","['P7023-7078', 'P7078-7023']",647-643-9629,500.0,,
24,7024,Dundonald St / Church St,REGULAR,43.66663,-79.38148,0.0,Dundonald St / Church St,36,"['KEY', 'CREDITCARD', 'TRANSITCARD', 'PHONE']",['P7241-7024'],647-631-9859,500.0,,
25,7025,Ted Rogers Way / Bloor St E,REGULAR,43.671293,-79.380471,0.0,Ted Rogers Way / Bloor St E,27,"['KEY', 'CREDITCARD', 'TRANSITCARD', 'PHONE']",[],647-631-9970,500.0,,
26,7026,Bay St / St. Joseph St,REGULAR,43.665527,-79.387499,,Bay St / St. Joseph St,15,"['KEY', 'CREDITCARD', 'TRANSITCARD', 'PHONE']",[],416-666-0783,500.0,,
27,7027,Beverley  St / Dundas St W,REGULAR,43.652823,-79.393388,0.0,Beverley  St / Dundas St W,31,"['KEY', 'CREDITCARD', 'TRANSITCARD', 'PHONE']",[],647-621-6739,500.0,,
28,7028,Gould St / Mutual St,REGULAR,43.6582,-79.3768,,Gould St / Mutual St,31,"['KEY', 'CREDITCARD', 'TRANSITCARD', 'PHONE']",[],416-560-7261,500.0,,
29,7029,Bay St / Bloor St W (East Side),REGULAR,43.66943,-79.38915,0.0,1199 Bay St,15,"['KEY', 'CREDITCARD', 'TRANSITCARD', 'PHONE']",[],647-669-3457,500.0,M6G1X2,
30,7030,Bay St / Wellesley St W,REGULAR,43.664088,-79.387095,,Bay St / Wellesley St W,50,"['KEY', 'CREDITCARD', 'TRANSITCARD', 'PHONE']",[],647-643-9612,1609.34,,
31,7031,Jarvis St / Isabella St,REGULAR,43.668991,-79.379385,0.0,Jarvis St / Isabella St,22,"['KEY', 'CREDITCARD', 'TRANSITCARD', 'PHONE']",[],416-569-7503,500.0,,
32,7032,Augusta Ave / Dundas St W,REGULAR,43.652473,-79.401456,0.0,Augusta Ave / Dundas St W,15,"['KEY', 'CREDITCARD', 'TRANSITCARD', 'PHONE']",[],647-622-8139,500.0,,
33,7033,Union Station,REGULAR,43.645609,-79.380386,0.0,Union Station,26,"['KEY', 'CREDITCARD', 'TRANSITCARD', 'PHONE']",[],647-620-1494,500.0,,
34,7034,Church St / Bloor St E,REGULAR,43.671389,-79.382919,0.0,Church St / Bloor St E,15,"['KEY', 'CREDITCARD', 'TRANSITCARD', 'PHONE']",[],437-992-7029,500.0,,
35,7035,Queen St W / Ossington Ave,REGULAR,43.643975,-79.419576,0.0,Queen St W / Ossington Ave,23,"['KEY', 'CREDITCARD', 'TRANSITCARD', 'PHONE']",['P7197-7035'],416-371-6632,500.0,,
36,7036,Trinity St /Front St E,REGULAR,43.651318,-79.36023,0.0,Trinity St / Front St E,19,"['KEY', 'CREDITCARD', 'TRANSITCARD', 'PHONE']",[],416-816-5603,500.0,,
37,7037,Bathurst St / Dundas St W,REGULAR,43.6523,-79.4058,0.0,Bathurst St / Dundas St W,41,"['KEY', 'CREDITCARD', 'TRANSITCARD', 'PHONE']",[],647-621-8042,500.0,,
38,7038,Dundas St W / Yonge St,REGULAR,43.656094,-79.381484,0.0,Dundas St W / Yonge St,15,"['KEY', 'CREDITCARD', 'TRANSITCARD', 'PHONE']",[],647-643-9714,500.0,,
39,7039,Simcoe St / Michael Sweet Ave,REGULAR,43.652327224103,-79.3882538196087,0.0,Simcoe St / Michael Sweet Ave,19,"['KEY', 'CREDITCARD', 'TRANSITCARD', 'PHONE']",[],647-202-6089,500.0,M5T3M3,
40,7040,Euclid Ave / Bloor St W,REGULAR,43.664467,-79.414783,0.0,Euclid Ave / Bloor St W,19,"['KEY', 'CREDITCARD', 'TRANSITCARD', 'PHONE']",[],416-565-9380,500.0,,
41,7041,Edward St / Yonge St,REGULAR,43.656729,-79.382736,,Edward St / Yonge St,23,"['KEY', 'CREDITCARD', 'TRANSITCARD', 'PHONE']",[],647-643-9697,500.0,,
42,7042,Sherbourne St / Wellesley St E,REGULAR,43.6673,-79.374,0.0,Sherbourne St / Wellesley St E,31,"['KEY', 'CREDITCARD', 'TRANSITCARD', 'PHONE']",[],416-804-0543,500.0,,
43,7043,Queens Quay W / Lower Simcoe St,REGULAR,43.63951,-79.383717,0.0,Queens Quay W / Lower Simcoe St,18,"['KEY', 'CREDITCARD', 'TRANSITCARD', 'PHONE']",[],647-204-1380,500.0,,
44,7044,Church St / Alexander St,REGULAR,43.663722,-79.380288,0.0,Church St / Alexander St,15,"['KEY', 'CREDITCARD', 'TRANSITCARD', 'PHONE']",[],647-618-1341,500.0,,
45,7045,Bond St / Queen St E,REGULAR,43.653236,-79.376716,0.0,Bond St / Queen St E,25,"['KEY', 'CREDITCARD', 'TRANSITCARD', 'PHONE']",[],647-629-0639,500.0,,
46,7046,Niagara St / Richmond St W,REGULAR,43.64534,-79.409597,0.0,Niagara St / Richmond St W,26,"['KEY', 'CREDITCARD', 'TRANSITCARD', 'PHONE']",['P7245-7046'],647-643-9655,500.0,,
47,7047,University Ave / Gerrard St W,REGULAR,43.657763,-79.389165,0.0,University Ave / Gerrard St W,24,"['KEY', 'CREDITCARD', 'TRANSITCARD', 'PHONE']",['P7004-7047'],647-643-9690,500.0,,
48,7048,Front St W / Yonge St (Hockey Hall of Fame),REGULAR,43.646144,-79.377962,0.0,Front St W / Yonge St (Hockey Hall of Fame),47,"['KEY', 'CREDITCARD', 'TRANSITCARD', 'PHONE']",[],647-204-0984,500.0,,
49,7049,Queen St W / Portland St,REGULAR,43.6476,-79.4015,0.0,Queen St W / Portland St,22,"['KEY', 'CREDITCARD', 'TRANSITCARD', 'PHONE']",[],647-624-3144,500.0,,
50,7050,Richmond St E / Jarvis St Green P,REGULAR,43.652634,-79.374222,0.0,Richmond St E / Jarvis St Green P,15,"['KEY', 'CREDITCARD', 'TRANSITCARD', 'PHONE']",['P7458-7050'],416-602-5376,500.0,,
51,7051,Wellesley St E / Yonge St (Green P),REGULAR,43.66506,-79.38357,0.0,Wellesley St E / Yonge St (Green P),17,"['KEY', 'CREDITCARD', 'TRANSITCARD', 'PHONE']",['P7272-7051'],416-587-8911,500.0,,
52,7052,Wellington St W / Bay St,REGULAR,43.647259,-79.379878,0.0,Wellington St W / Bay St,27,"['KEY', 'CREDITCARD', 'TRANSITCARD', 'PHONE']",[],416-723-3438,500.0,,
53,7053,Metro Hall Plaza,REGULAR,43.645859,-79.38783,,Metro Hall Plaza,27,"['KEY', 'CREDITCARD', 'TRANSITCARD', 'PHONE']",['P7253-7053'],647-201-7794,500.0,,
54,7054,Navy Wharf Ct. / Bremner Blvd.,REGULAR,43.640722,-79.391051,0.0,Navy Wharf Ct. / Bremner Blvd.,11,"['KEY', 'CREDITCARD', 'TRANSITCARD', 'PHONE']",['P7054-7073'],416-662-2516,500.0,,
55,7055,Jarvis St / Carlton St,REGULAR,43.66207,-79.37617,0.0,Jarvis St / Carlton St,15,"['KEY', 'CREDITCARD', 'TRANSITCARD', 'PHONE']",[],416-722-3901,500.0,,
56,7056,Parliament St / Gerrard St,REGULAR,43.662132,-79.3656796,0.0,Parliament St / Gerrard St,23,"['KEY', 'CREDITCARD', 'TRANSITCARD', 'PHONE']",[],647-201-5089,500.0,,
57,7057,Simcoe St / Wellington St South,REGULAR,43.6458569,-79.3853654,0.0,Simcoe St / Wellington St 1,27,"['KEY', 'CREDITCARD', 'TRANSITCARD', 'PHONE']",[],647-641-2103,500.0,M6a1a1,
58,7058,Huron/ Harbord St,REGULAR,43.6637,-79.400053,0.0,Huron/ Harbord St,19,"['KEY', 'CREDITCARD', 'TRANSITCARD', 'PHONE']",[],647-643-9725,500.0,,
59,7059,Front St W / Blue Jays Way,REGULAR,43.643473,-79.390477,0.0,Front St W / Blue Jays Way,15,"['KEY', 'CREDITCARD', 'TRANSITCARD', 'PHONE']",[],647-241-7299,500.0,,
60,7060,Princess St / Adelaide St E,REGULAR,43.652123,-79.367139,0.0,Princess St / Adelaide St E,19,"['KEY', 'CREDITCARD', 'TRANSITCARD', 'PHONE']",[],416-569-5317,500.0,,
61,7061,Dalton Rd / Bloor St W,REGULAR,43.6662942,-79.4066433,0.0,Bloor St / Brunswick Ave,19,"['KEY', 'CREDITCARD', 'TRANSITCARD', 'PHONE']",['P7254-7061'],647-643-9676,500.0,M6G1A1,
62,7062,University Ave / College St (West),REGULAR,43.659226,-79.390213,,University Ave / College St (West),11,"['KEY', 'CREDITCARD', 'TRANSITCARD', 'PHONE']",['P7062-7502'],647-643-9667,500.0,,
63,7063,Queen's Park / Bloor St W,REGULAR,43.668456,-79.393899,0.0,Queen's Park / Bloor St W,19,"['KEY', 'CREDITCARD', 'TRANSITCARD', 'PHONE']",[],647-632-5491,500.0,,
64,7064,51 Parliament St,REGULAR,43.65205,-79.362198,0.0,51 Parliament St,19,"['KEY', 'CREDITCARD', 'TRANSITCARD', 'PHONE']",[],647-241-9519,500.0,,
65,7065,Dundas St E / Parliament St,REGULAR,43.659575,-79.365769,0.0,Dundas St E / Parliament St,15,"['KEY', 'CREDITCARD', 'TRANSITCARD', 'PHONE']",[],416-568-2679,500.0,,
66,7066,Willcocks St / St. George St,REGULAR,43.662085,-79.397735,0.0,Willcocks St / St. George St,16,"['KEY', 'CREDITCARD', 'TRANSITCARD', 'PHONE']",[],647-643-9624,500.0,,
67,7067,Yonge St / Harbour St,REGULAR,43.643795,-79.375413,0.0,Yonge St / Harbour St,38,"['KEY', 'CREDITCARD', 'TRANSITCARD', 'PHONE']",[],647-643-9613,500.0,,
68,7069,Queen St W / Spadina Ave,REGULAR,43.649147,-79.395504,0.0,Queen St W / Spadina Ave,11,"['KEY', 'CREDITCARD', 'TRANSITCARD', 'PHONE']","['P7069-7217', 'P7256-7069']",647-622-8344,500.0,,
69,7070,25 York St – Union Station South,REGULAR,43.643667,-79.380414,0.0,25 York St – Union Station South,11,"['KEY', 'CREDITCARD', 'TRANSITCARD', 'PHONE']","['P7070-7470', 'P7006-7235']",416-624-8596,500.0,,
70,7071,161 Bleecker St (South of Wellesley),REGULAR,43.666233,-79.373327,0.0,161 Bleecker St (South of Wellesley),23,"['KEY', 'CREDITCARD', 'TRANSITCARD', 'PHONE']",[],647-643-9846,500.0,,
71,7072,Fleet St / Bathurst St,REGULAR,43.636611,-79.400042,0.0,Fleet St / Bathurst St,18,"['KEY', 'CREDITCARD', 'TRANSITCARD', 'PHONE']",[],416-564-6690,500.0,M6G1X2,
72,7073,Spadina Ave / Fort York Blvd,REGULAR,43.640114,-79.393249,0.0,Spadina Ave / Fort York Blvd,23,"['KEY', 'CREDITCARD', 'TRANSITCARD', 'PHONE']",['P7054-7073'],416-627-9646,500.0,,
73,7074,Spadina Ave / Sussex Ave,REGULAR,43.664137,-79.402496,0.0,Spadina Ave / Sussex Ave,27,"['KEY', 'CREDITCARD', 'TRANSITCARD', 'PHONE']",[],647-643-9718,500.0,,
74,7075,Queens Quay W / Dan Leckie Way,REGULAR,43.636533,-79.395854,0.0,Queens Quay W / Dan Leckie Way,27,"['KEY', 'CREDITCARD', 'TRANSITCARD', 'PHONE']",[],416-669-9604,500.0,,
75,7076,York St / Queens Quay W,REGULAR,43.640132,-79.380464,0.0,York St / Queens Quay W,26,"['KEY', 'CREDITCARD', 'TRANSITCARD', 'PHONE']",[],416-618-7456,500.0,,
76,7077,College Park South,REGULAR,43.659777,-79.382767,0.0,College Park South,18,"['KEY', 'CREDITCARD', 'TRANSITCARD', 'PHONE']",[],647-643-9694,500.0,,
77,7078,College St / Major St,REGULAR,43.6576,-79.4032,0.0,College St / Major St,11,"['KEY', 'CREDITCARD', 'TRANSITCARD', 'PHONE']","['P7023-7078', 'P7078-7023']",647-643-9638,500.0,,
78,7079,McGill St / Church St,REGULAR,43.660694,-79.379052,0.0,McGill St / Church St,19,"['KEY', 'CREDITCARD', 'TRANSITCARD', 'PHONE']",['P7292-7079'],437-999-8524,500.0,,
79,7083,Danforth Ave / Barrington Ave,REGULAR,43.688325,-79.300463,0.0,Danforth Ave / Barrington Ave,15,"['KEY', 'CREDITCARD', 'TRANSITCARD', 'PHONE']",[],647-631-4821,500.0,,
80,7084,High Park - Grenadier Cafe,REGULAR,43.645599,-79.4657123,0.0,High Park - Grenadier Cafe,11,"['KEY', 'CREDITCARD', 'TRANSITCARD', 'PHONE']",['P7084-7461'],647-643-9563,1609.34,,
81,7085,Danforth Ave / Westlake Ave,REGULAR,43.687323,-79.304848,0.0,Danforth Ave / Westlake Ave,15,"['KEY', 'CREDITCARD', 'TRANSITCARD', 'PHONE']",[],647-201-8853,500.0,,
82,7086,High Park - West Rd,REGULAR,43.6525077,-79.4654233,0.0,High Park - West Rd,23,"['KEY', 'CREDITCARD', 'TRANSITCARD', 'PHONE']",[],647-641-7093,1609.34,1324,
83,7087,Danforth Ave / Aldridge Ave,REGULAR,43.684758,-79.316767,0.0,Danforth Ave / Aldridge Ave,11,"['KEY', 'CREDITCARD', 'TRANSITCARD', 'PHONE']",['P7087-7429'],647-641-9873,1000.0,,
84,7088,Danforth Ave / Coxwell Ave,REGULAR,43.683378,-79.322961,0.0,Danforth Ave / Coxwell Ave,15,"['KEY', 'CREDITCARD', 'TRANSITCARD', 'PHONE']",[],647-248-5891,500.0,,
85,7089,Church St  / Wood St,REGULAR,43.662712,-79.379903,102.08,Church St / Wood St,19,"['KEY', 'CREDITCARD', 'TRANSITCARD', 'PHONE']",[],647-262-1148,500.0,,
86,7090,Danforth Ave / Lamb Ave,REGULAR,43.681991,-79.329455,0.0,Danforth Ave / Lamb Ave,15,"['KEY', 'CREDITCARD', 'TRANSITCARD', 'PHONE']",[],647-641-6203,500.0,,
87,7091,Donlands Station,REGULAR,43.681126,-79.337779,0.0,Donlands Station,11,"['KEY', 'CREDITCARD', 'TRANSITCARD', 'PHONE']",['P7091-7092'],647-669-1705,1000.0,,
88,7092,Pape Subway Green P,REGULAR,43.680223,-79.344062,0.0,Pape Subway Green P,15,"['KEY', 'CREDITCARD', 'TRANSITCARD', 'PHONE']",['P7091-7092'],647-641-3078,500.0,,
89,7093,Danforth Ave / Gough Ave,REGULAR,43.678401,-79.346289,0.0,Danforth Ave / Gough Ave,17,"['KEY', 'CREDITCARD', 'TRANSITCARD', 'PHONE']",[],647-669-1671,500.0,,
90,7094,Chester Station,REGULAR,43.678056,-79.352222,0.0,Chester Station,11,"['KEY', 'CREDITCARD', 'TRANSITCARD', 'PHONE']",['P7094-7450'],647-638-8374,500.0,,
91,7095,Danforth Ave / Ellerbeck St,REGULAR,43.677076,-79.35667,0.0,Danforth Ave / Ellerbeck St,14,"['KEY', 'CREDITCARD', 'TRANSITCARD', 'PHONE']",[],647-669-1678,500.0,,
92,7096,Boston Ave / Queen St E,REGULAR,43.661508,-79.338931,0.0,Boston Ave / Queen St E,19,"['KEY', 'CREDITCARD', 'TRANSITCARD', 'PHONE']","['P7103-7096', 'P7287-7096']",647-669-3908,500.0,,
93,7097,Riverdale Park North (Broadview Ave),REGULAR,43.671172,-79.354704,0.0,Riverdale Park North (Broadview Ave),14,"['KEY', 'CREDITCARD', 'TRANSITCARD', 'PHONE']",[],647-643-9838,500.0,,
94,7098,Riverdale Park South (Broadview Ave),REGULAR,43.667819,-79.35347,0.0,Riverdale Park South (Broadview Ave),15,"['KEY', 'CREDITCARD', 'TRANSITCARD', 'PHONE']",[],647-640-5291,500.0,,
95,7099,Cherry St / Mill St,REGULAR,43.651248,-79.357848,0.0,Cherry St / Mill St,15,"['KEY', 'CREDITCARD', 'TRANSITCARD', 'PHONE']",[],647-640-7714,500.0,,
96,7100,Dundas St E / Regent Park Blvd,REGULAR,43.660207,-79.361275,0.0,Dundas St E / Regent Park Blvd,19,"['KEY', 'CREDITCARD', 'TRANSITCARD', 'PHONE']",[],647-669-3847,500.0,,
97,7101,Lower Sherbourne St / The Esplanade,REGULAR,43.648655,-79.367061,0.0,Lower Sherbourne St / The Esplanade,27,"['KEY', 'CREDITCARD', 'TRANSITCARD', 'PHONE']",[],647-641-5818,500.0,,
98,7102,Nelson St / Duncan St,REGULAR,43.648711,-79.389728,0.0,Nelson St / Duncan St,31,"['KEY', 'CREDITCARD', 'TRANSITCARD', 'PHONE']",['P7017-7102'],647-641-5951,500.0,,
99,7103,Jimmie Simpson Park (Queen St E),REGULAR,43.6605603,-79.3437663,0.0,Jimmie Simpson Park (Queen St E),11,"['KEY', 'CREDITCARD', 'TRANSITCARD', 'PHONE']",['P7103-7096'],647-669-2521,500.0,,
100,7104,King St E / River St,REGULAR,43.657071,-79.356598,0.0,King St E / River St,15,"['KEY', 'CREDITCARD', 'TRANSITCARD', 'PHONE']",[],647-641-5813,500.0,,
101,7105,Queen St E / Sackville St,REGULAR,43.6561111,-79.36138888888888,0.0,Queen St E / Sackville St,15,"['KEY', 'CREDITCARD', 'TRANSITCARD', 'PHONE']",[],647-290-7069,500.0,,
102,7106,Mill St / Tannery Rd,REGULAR,43.652219,-79.354455,0.0,Mill St / Tannery Rd,15,"['KEY', 'CREDITCARD', 'TRANSITCARD', 'PHONE']",[],647-641-5839,500.0,,
103,7107,Cherry St / Distillery Ln,REGULAR,43.650279,-79.356832,0.0,Cherry St / Distillery Ln,15,"['KEY', 'CREDITCARD', 'TRANSITCARD', 'PHONE']",[],647-669-2608,500.0,,
104,7108,Front St E / Cherry St,REGULAR,43.652686,-79.358395,0.0,Front St E / Cherry St,15,"['KEY', 'CREDITCARD', 'TRANSITCARD', 'PHONE']",['P7493-7108'],647-669-4512,500.0,,
105,7109,Seaton St / Dundas St E - SMART,SMARTMAPFRAME,43.658777,-79.369596,0.0,Seaton St / Dundas St E,12,"['KEY', 'TRANSITCARD', 'PHONE']","['SMART MAP FRAME', 'P7109-7508']",647-669-3971,500.0,,
106,7110,Queen St E / Berkeley St,REGULAR,43.6552778,-79.36583333333333,0.0,Queen St E / Berkeley St,15,"['KEY', 'CREDITCARD', 'TRANSITCARD', 'PHONE']",[],647-290-4392,500.0,,
107,7111,King St W / Douro St,REGULAR,43.640885,-79.416379,0.0,King St W / Douro St,10,"['KEY', 'CREDITCARD', 'TRANSITCARD', 'PHONE']",['P7111-7412'],647-641-5214,500.0,,
108,7112,Liberty St / Fraser Ave Green P,REGULAR,43.637981,-79.424146,0.0,Liberty St / Fraser Ave Green P,19,"['KEY', 'CREDITCARD', 'TRANSITCARD', 'PHONE']",[],647-669-3920,500.0,,
109,7113,Parliament St / Aberdeen Ave,REGULAR,43.665278,-79.368333,0.0,Parliament St / Aberdeen Ave,15,"['KEY', 'CREDITCARD', 'TRANSITCARD', 'PHONE']",[],647-640-5613,500.0,,
110,7114,Carlton St / Parliament St,REGULAR,43.664524,-79.36793,0.0,Carlton St / Parliament St,15,"['KEY', 'CREDITCARD', 'TRANSITCARD', 'PHONE']",[],647-262-2870,500.0,,
111,7115,Howard St / Sherbourne St,REGULAR,43.6712581,-79.376367,0.0,Howard St / Sherbourne St,15,"['KEY', 'CREDITCARD', 'TRANSITCARD', 'PHONE']",[],647-641-1259,500.0,,
112,7116,Parliament St / Bloor St E,REGULAR,43.671827,-79.371849,0.0,Parliament St / Bloor St E,15,"['KEY', 'CREDITCARD', 'TRANSITCARD', 'PHONE']",[],647-640-7289,500.0,,
113,7117,Castle Frank Station,REGULAR,43.674083,-79.368579,0.0,Castle Frank Station,15,"['KEY', 'CREDITCARD', 'TRANSITCARD', 'PHONE']",[],647-267-2042,500.0,,
114,7118,King St W / Bay St (East Side),REGULAR,43.648575,-79.380042,0.0,King St W / Bay St (East Side),18,"['KEY', 'CREDITCARD', 'TRANSITCARD', 'PHONE']",['P7417-7118'],647-271-6326,500.0,,
115,7119,Sumach St / Carlton St. (Riverdale Farm),REGULAR,43.665867,-79.362506,0.0,Sumach St / Carlton St (Riverdale Farm),14,"['KEY', 'CREDITCARD', 'TRANSITCARD', 'PHONE']","['P7312-7119', 'P7120-7119']",647-282-9705,500.0,,
116,7120,Gerrard St E / River St,REGULAR,43.663993,-79.358534,0.0,Gerrard St E / River St,11,"['KEY', 'CREDITCARD', 'TRANSITCARD', 'PHONE']",['P7120-7119'],647-643-9843,500.0,,
117,7121,Jarvis St / Dundas St E,REGULAR,43.657266,-79.374756,0.0,Jarvis St / Dundas St E,15,"['KEY', 'CREDITCARD', 'TRANSITCARD', 'PHONE']",[],647-641-5582,500.0,,
118,7122,Niagara St / Tecumseth St,REGULAR,43.641389,-79.404444,0.0,Niagara St / Tecumseth St,15,"['KEY', 'CREDITCARD', 'TRANSITCARD', 'PHONE']",[],647-272-3286,500.0,,
119,7123,424 Wellington St W,REGULAR,43.643834,-79.396649,0.0,424 Wellington St W,15,"['KEY', 'CREDITCARD', 'TRANSITCARD', 'PHONE']",['P7011-7123'],647-272-4047,500.0,,
120,7124,Dundas St E / Broadview Ave,REGULAR,43.662365,-79.351104,0.0,Dundas St E / Broadview Ave,19,"['KEY', 'CREDITCARD', 'TRANSITCARD', 'PHONE']",['P7236-7124'],647-669-4283,500.0,,
121,7126,Yonge St / Yorkville Ave,REGULAR,43.671944,-79.387778,0.0,Yonge St / Yorkville Ave,17,"['KEY', 'CREDITCARD', 'TRANSITCARD', 'PHONE']",[],647-719-3941,500.0,,
122,7127,Bay St / Davenport Rd,REGULAR,43.672829,-79.390592,0.0,Bay St / Davenport Rd,15,"['KEY', 'CREDITCARD', 'TRANSITCARD', 'PHONE']",['P7494-7127'],647-201-6479,500.0,,
123,7128,Yonge St / Aylmer Ave,REGULAR,43.675492,-79.388858,0.0,Yonge St / Aylmer Ave,15,"['KEY', 'CREDITCARD', 'TRANSITCARD', 'PHONE']",[],647-641-6641,500.0,,
124,7129,Davenport Rd / Avenue Rd,REGULAR,43.674991,-79.396273,0.0,Davenport Rd / Avenue Rd,11,"['KEY', 'CREDITCARD', 'TRANSITCARD', 'PHONE']",['P7129-7130'],437-992-7074,500.0,,
125,7130,Davenport Rd / Bedford Rd,REGULAR,43.6743985,-79.3986601,0.0,Davenport Rd / Bedford Rd,15,"['KEY', 'CREDITCARD', 'TRANSITCARD', 'PHONE']",['P7129-7130'],647-641-6906,500.0,M6G1X2,
126,7131,Taddle Creek Park,REGULAR,43.66986,-79.398443,0.0,Taddle Creek Park,15,"['KEY', 'CREDITCARD', 'TRANSITCARD', 'PHONE']",[],647-309-1691,500.0,,
127,7132,Kendal Ave / Spadina Rd,REGULAR,43.670318,-79.405181,0.0,Kendal Ave / Spadina Rd,8,"['KEY', 'CREDITCARD', 'TRANSITCARD', 'PHONE']",['P7132-7143'],647-641-7095,500.0,,
128,7133,Summerhill Station,REGULAR,43.681944,-79.390556,0.0,Summerhill Station,11,"['KEY', 'CREDITCARD', 'TRANSITCARD', 'PHONE']",['P7133-7134'],647-328-4512,500.0,,
129,7134,Marlborough Ave / Yonge St,REGULAR,43.68,-79.391111,0.0,Marlborough Ave / Yonge St,23,"['KEY', 'CREDITCARD', 'TRANSITCARD', 'PHONE']",['P7133-7134'],647-641-6918,500.0,,
130,7135,Hanna Ave / Liberty St,REGULAR,43.638333,-79.419722,0.0,Hanna Ave / Liberty St,15,"['KEY', 'CREDITCARD', 'TRANSITCARD', 'PHONE']",[],647-280-9962,500.0,,
131,7136,Queen St W / Close Ave,REGULAR,43.640634,-79.435841,0.0,Queen St W / Close Ave,23,"['KEY', 'CREDITCARD', 'TRANSITCARD', 'PHONE']",[],647-624-8559,500.0,,
132,7137,Davenport Rd / Bathurst St,REGULAR,43.676667,-79.416111,0.0,Davenport Rd / Bathurst St,15,"['KEY', 'CREDITCARD', 'TRANSITCARD', 'PHONE']",[],647-641-6859,500.0,,
133,7138,Davenport Rd / Christie St,REGULAR,43.675278,-79.423889,0.0,Davenport Rd / Christie St,15,"['KEY', 'CREDITCARD', 'TRANSITCARD', 'PHONE']",[],647-669-2814,500.0,,
134,7139,Glen Edyth Dr / Davenport Rd,REGULAR,43.677778,-79.405556,0.0,Glen Edyth Dr / Davenport Rd,15,"['KEY', 'CREDITCARD', 'TRANSITCARD', 'PHONE']",[],647-643-9830,500.0,,
135,7140,Macpherson Ave / Spadina Rd,REGULAR,43.675791,-79.40698,0.0,Macpherson Ave / Spadina Rd,15,"['KEY', 'CREDITCARD', 'TRANSITCARD', 'PHONE']",[],647-669-2824,500.0,,
136,7141,Bridgeman Ave / Kendal Ave,REGULAR,43.675556,-79.410278,0.0,Bridgeman Ave / Kendal Ave,15,"['KEY', 'CREDITCARD', 'TRANSITCARD', 'PHONE']",[],647-640-7641,500.0,,
137,7142,Bridgeman Ave / Bathurst St,REGULAR,43.674444,-79.414722,0.0,Bridgeman Ave / Bathurst St,15,"['KEY', 'CREDITCARD', 'TRANSITCARD', 'PHONE']",[],647-669-4408,500.0,,
138,7143,Kendal Ave / Bernard Ave,REGULAR,43.671513,-79.408317,0.0,Kendal Ave / Bernard Ave,15,"['KEY', 'CREDITCARD', 'TRANSITCARD', 'PHONE']",['P7132-7143'],647-643-9741,500.0,,
139,7144,Palmerston Ave / Vermont Ave,REGULAR,43.671389,-79.416389,0.0,Palmerston Ave / Vermont Ave,15,"['KEY', 'CREDITCARD', 'TRANSITCARD', 'PHONE']",[],647-284-2560,500.0,,
140,7146,Christie St / Benson Ave (Wychwood Barns),REGULAR,43.68,-79.42500000000001,0.0,Christie St / Benson Ave (Wychwood Barns),19,"['KEY', 'CREDITCARD', 'TRANSITCARD', 'PHONE']",['P7435-7146'],647-643-9742,500.0,,
141,7147,King St W / Fraser Ave,REGULAR,43.6394444,-79.42527777777778,0.0,King St W / Fraser Ave,15,"['KEY', 'CREDITCARD', 'TRANSITCARD', 'PHONE']",[],647-669-3846,500.0,,
142,7148,King St W / Joe Shuster Way,REGULAR,43.639444,-79.423611,0.0,King St W / Joe Shuster Way,15,"['KEY', 'CREDITCARD', 'TRANSITCARD', 'PHONE']",[],647-285-4281,500.0,,
143,7149,Yarmouth Rd / Christie St,REGULAR,43.67,-79.42083333333333,0.0,Yarmouth Rd / Christie St,11,"['KEY', 'CREDITCARD', 'TRANSITCARD', 'PHONE']",['P7149-7151'],647-287-2061,500.0,,
144,7150,Dufferin St / Sylvan Av (Dufferin Grove Park),REGULAR,43.6555556,-79.43361111111112,0.0,Dufferin St / Sylvan Av (Dufferin Grove Park),19,"['KEY', 'CREDITCARD', 'TRANSITCARD', 'PHONE']",[],647-643-9812,500.0,,
145,7151,Essex St / Christie St,REGULAR,43.6686111,-79.42027777777778,0.0,Essex St / Christie St,18,"['KEY', 'CREDITCARD', 'TRANSITCARD', 'PHONE']",['P7149-7151'],647-643-9745,500.0,,
146,7152,Ossington Ave / Bloor St W,REGULAR,43.661705,-79.425734,0.0,Ossington Ave / Bloor St W,11,"['KEY', 'CREDITCARD', 'TRANSITCARD', 'PHONE']",['P7152-7437'],647-286-9204,500.0,,
147,7153,Bloor St W / Christie St,REGULAR,43.6638889,-79.41888888888889,0.0,Bloor St W / Christie St,19,"['KEY', 'CREDITCARD', 'TRANSITCARD', 'PHONE']",[],647-643-9744,500.0,,
148,7154,Bathurst Subway Station,REGULAR,43.6666667,-79.41166666666668,0.0,Bathurst Subway Station,23,"['KEY', 'CREDITCARD', 'TRANSITCARD', 'PHONE']",[],647-289-4712,500.0,,
149,7155,Bathurst St / Lennox St,REGULAR,43.663808,-79.410491,0.0,Bathurst St / Lennox St,19,"['KEY', 'CREDITCARD', 'TRANSITCARD', 'PHONE']",[],647-643-9750,500.0,,
150,7156,Salem Ave / Bloor St W,REGULAR,43.6608333,-79.43166666666667,0.0,Salem Ave / Bloor St W,22,"['KEY', 'CREDITCARD', 'TRANSITCARD', 'PHONE']",[],647-289-9256,500.0,,
151,7157,Dufferin St / Bloor St,REGULAR,43.66083333333333,-79.43583333333333,0.0,Dufferin St / Bloor St,15,"['KEY', 'CREDITCARD', 'TRANSITCARD', 'PHONE']",[],647-309-0950,500.0,,
152,7158,King St W / Stafford St,REGULAR,43.6422222,-79.41111111111111,0.0,King St W / Stafford St,15,"['KEY', 'CREDITCARD', 'TRANSITCARD', 'PHONE']",[],647-300-9735,500.0,,
153,7160,King St W / Tecumseth St,REGULAR,43.64333333333333,-79.40555555555557,0.0,King St W / Tecumseth St,15,"['KEY', 'CREDITCARD', 'TRANSITCARD', 'PHONE']",[],647-302-3804,500.0,,
154,7161,Beverley St / College St,REGULAR,43.6575,-79.39527777777778,0.0,Beverley St / College St,23,"['KEY', 'CREDITCARD', 'TRANSITCARD', 'PHONE']",[],647-643-9768,500.0,,
155,7162,Hayter St / Laplante Ave,REGULAR,43.6591666666667,-79.3855555555556,0.0,Hayter St / Laplante Ave,15,"['KEY', 'CREDITCARD', 'TRANSITCARD', 'PHONE']",[],647-669-1302,500.0,,
156,7163,Yonge St / Wood St,REGULAR,43.6622222,-79.3825,0.0,Yonge St / Wood St,15,"['KEY', 'CREDITCARD', 'TRANSITCARD', 'PHONE']",[],647-643-9754,500.0,,
157,7164,Gould St / Yonge St (Ryerson University),REGULAR,43.657424,-79.381019,0.0,Gould St / Yonge St (Ryerson University),23,"['KEY', 'CREDITCARD', 'TRANSITCARD', 'PHONE']",[],647-292-0183,500.0,,
158,7167,Queen St E / George St (Moss Park),REGULAR,43.6544444,-79.3711111111111,0.0,Queen St E / George St (Moss Park),17,"['KEY', 'CREDITCARD', 'TRANSITCARD', 'PHONE']",[],647-643-9747,500.0,,
159,7168,Queens Quay / Yonge St,REGULAR,43.641646,-79.375308,0.0,Queens Quay / Yonge St,31,"['KEY', 'CREDITCARD', 'TRANSITCARD', 'PHONE']",[],647-643-9780,500.0,,
160,7169,Front St W / Bay St (North Side),REGULAR,43.646162,-79.378912,0.0,Front St W / Bay St (North Side),11,"['KEY', 'CREDITCARD', 'TRANSITCARD', 'PHONE']",['P7169-7283'],437-992-6547,500.0,,
161,7170,Spadina Ave / Willcocks St,REGULAR,43.6616667,-79.40138888888889,0.0,Spadina Ave / Willcocks St,14,"['KEY', 'CREDITCARD', 'TRANSITCARD', 'PHONE']",['P7285-7170'],647-293-0441,500.0,,
162,7171,Ontario Place Blvd / Lakeshore Blvd W,REGULAR,43.6322445,-79.4108105,0.0,Ontario Place Blvd / Lakeshore Blvd W,27,"['KEY', 'CREDITCARD', 'TRANSITCARD', 'PHONE']",[],647-294-0390,500.0,,
163,7172,Strachan Ave / Princes' Blvd,REGULAR,43.635,-79.4088888888889,0.0,Strachan Ave / Princes' Blvd,19,"['KEY', 'CREDITCARD', 'TRANSITCARD', 'PHONE']",[],647-294-5248,500.0,,
164,7173,Cariboo St / Rail Path,REGULAR,43.66666667,-79.45833333333334,0.0,Cariboo St / Rail Path,19,"['KEY', 'CREDITCARD', 'TRANSITCARD', 'PHONE']",[],647-643-9769,500.0,,
165,7174,Bloor St W / Dundas St W,REGULAR,43.6563889,-79.45166666666667,0.0,Bloor St W / Dundas St W,15,"['KEY', 'CREDITCARD', 'TRANSITCARD', 'PHONE']",[],647-296-3378,500.0,,
166,7175,HTO Park (Queens Quay W),REGULAR,43.63796,-79.387502,0.0,HTO Park (Queens Quay W),27,"['KEY', 'CREDITCARD', 'TRANSITCARD', 'PHONE']",[],647-643-9853,500.0,,
167,7176,Bathurst St / Fort York Blvd,REGULAR,43.639179,-79.399595,0.0,Bathurst St / Fort York Blvd,19,"['KEY', 'CREDITCARD', 'TRANSITCARD', 'PHONE']",[],647-643-9795,500.0,,
168,7177,East Liberty St / Pirandello St,REGULAR,43.6386111111111,-79.4147222222222,0.0,East Liberty St / Pirandello St,19,"['KEY', 'CREDITCARD', 'TRANSITCARD', 'PHONE']",[],647-643-9861,500.0,,
169,7178,Dundas St W / Edna Ave,REGULAR,43.657192,-79.452559,0.0,Dundas St W / Edna Ave,15,"['KEY', 'CREDITCARD', 'TRANSITCARD', 'PHONE']",[],647-643-9783,500.0,,
170,7179,Bloor GO / UP Station (West Toronto Railpath),REGULAR,43.6575,-79.4502777777778,0.0,Bloor GO / UP Station (West Toronto Railpath),19,"['KEY', 'CREDITCARD', 'TRANSITCARD', 'PHONE']",[],647-298-1648,500.0,,
171,7180,Lansdowne Subway Station,REGULAR,43.6587734,-79.443054,0.0,Lansdowne Ave / Wade Ave,23,"['KEY', 'CREDITCARD', 'TRANSITCARD', 'PHONE']",[],647-643-9759,500.0,,
172,7181,Lansdowne Ave / Whytock Ave,REGULAR,43.6538888888889,-79.4413888888889,0.0,Lansdowne Ave / Whytock Ave,15,"['KEY', 'CREDITCARD', 'TRANSITCARD', 'PHONE']",[],647-295-6052,500.0,,
173,7182,Sterling Rd / Dundas St W,REGULAR,43.6508333333333,-79.4430555555556,0.0,Sterling Rd / Dundas St W,18,"['KEY', 'CREDITCARD', 'TRANSITCARD', 'PHONE']",[],647-643-9791,500.0,,
174,7183,St Clarens Ave / College St,REGULAR,43.651238,-79.43868,0.0,St Clarens Ave / College St,15,"['KEY', 'CREDITCARD', 'TRANSITCARD', 'PHONE']",[],647-300-6130,500.0,,
175,7184,Ossington Ave / College St,REGULAR,43.6544915,-79.422634,0.0,Ossington Ave / College St,11,"['KEY', 'CREDITCARD', 'TRANSITCARD', 'PHONE']",[],647-643-9789,500.0,,
176,7188,Exhibition GO (Atlantic Ave),REGULAR,43.6366666666667,-79.4197222222222,0.0,Exhibition GO (Atlantic Ave),23,"['KEY', 'CREDITCARD', 'TRANSITCARD', 'PHONE']",[],647-643-9764,500.0,,
177,7189,Augusta Ave / Denison Sq,REGULAR,43.653766,-79.4016759,0.0,Augusta Ave / Denison Sq,14,"['KEY', 'CREDITCARD', 'TRANSITCARD', 'PHONE']",[],647-285-0348,500.0,,
178,7190,St. George St / Hoskin Ave,REGULAR,43.664059,-79.398334,0.0,St. George St / Hoskin Ave,15,"['KEY', 'CREDITCARD', 'TRANSITCARD', 'PHONE']",[],647-669-1645,500.0,,
179,7191,Central Tech  (Harbord St),REGULAR,43.661975,-79.407896,0.0,Central Tech (Harbord St),11,"['KEY', 'CREDITCARD', 'TRANSITCARD', 'PHONE']","['P7191-7195', 'P7195-7191']",647-643-9801,500.0,,
180,7192,Harbord St / Clinton St,REGULAR,43.660414,-79.415646,0.0,Harbord St / Clinton St,15,"['KEY', 'CREDITCARD', 'TRANSITCARD', 'PHONE']",['P7208-7192'],647-669-1501,500.0,,
181,7193,Queen St W / Gladstone Ave,REGULAR,43.6430555555556,-79.4275,0.0,Queen St W / Gladstone Ave,15,"['KEY', 'CREDITCARD', 'TRANSITCARD', 'PHONE']",[],647-405-2875,500.0,,
182,7194,Mortimer Ave / Coxwell Ave,REGULAR,43.690564,-79.326319,0.0,Mortimer Ave / Coxwell Ave,11,"['KEY', 'CREDITCARD', 'TRANSITCARD', 'PHONE']",['P7194-7331'],647-669-1379,500.0,,
183,7195,Ulster St / Bathurst St,REGULAR,43.66,-79.4088888888889,0.0,Ulster St / Bathurst St,11,"['KEY', 'CREDITCARD', 'TRANSITCARD', 'PHONE']","['P7191-7195', 'P7195-7191']",647-643-9821,500.0,,
184,7196,Roxton Rd / Harbord St,REGULAR,43.65905,-79.422988,0.0,Roxton Rd / Harbord St,11,"['KEY', 'CREDITCARD', 'TRANSITCARD', 'PHONE']",['P7196-7360'],647-643-9811,500.0,,
185,7197,Queen St W / Dovercourt Rd,REGULAR,43.6436111111111,-79.4225,0.0,Queen St W / Dovercourt Rd,11,"['KEY', 'CREDITCARD', 'TRANSITCARD', 'PHONE']",['P7197-7035'],647-643-9863,500.0,,
186,7198,Queen St W / Cowan Ave,REGULAR,43.6409,-79.432837,0.0,Queen St W / Cowan Ave,19,"['KEY', 'CREDITCARD', 'TRANSITCARD', 'PHONE']",[],647-244-9310,500.0,,
187,7199,College St / Markham St,REGULAR,43.6563888888889,-79.4091666666667,0.0,College St / Markham St,19,"['KEY', 'CREDITCARD', 'TRANSITCARD', 'PHONE']",[],647-643-9817,500.0,,
188,7202,Queen St W / York St (City Hall),REGULAR,43.651667,-79.384167,0.0,Queen St W / York St (City Hall),23,"['KEY', 'CREDITCARD', 'TRANSITCARD', 'PHONE']",[],647-629-5943,500.0,,
189,7203,Bathurst St/Queens Quay(Billy Bishop Airport),REGULAR,43.635492,-79.398253,0.0,Bathurst St/Queens Quay(Billy Bishop Airport),32,"['KEY', 'CREDITCARD', 'TRANSITCARD', 'PHONE']",[],647-669-4303,500.0,,
190,7204,College St / Crawford St,REGULAR,43.655,-79.418889,0.0,College St / Crawford St,19,"['KEY', 'CREDITCARD', 'TRANSITCARD', 'PHONE']",[],647-530-9928,500.0,,
191,7205,Rusholme Park Cres / College St,REGULAR,43.65277778,-79.42972222,0.0,Rusholme Park Cres / College St,15,"['KEY', 'CREDITCARD', 'TRANSITCARD', 'PHONE']",[],647-633-4094,500.0,,
192,7206,Claremont St / Dundas St W,REGULAR,43.651281,-79.411717,0.0,Claremont St / Dundas St W,13,"['KEY', 'CREDITCARD', 'TRANSITCARD', 'PHONE']",[],647-530-5659,500.0,,
193,7207,Dundas St W / Crawford St,REGULAR,43.649722,-79.416944,0.0,Dundas St W / Crawford St,19,"['KEY', 'CREDITCARD', 'TRANSITCARD', 'PHONE']",[],647-669-3017,500.0,,
194,7208,80 Clinton St (North of College),REGULAR,43.656296,-79.414663,0.0,80 Clinton St (North of College),11,"['KEY', 'CREDITCARD', 'TRANSITCARD', 'PHONE']",['P7208-7192'],647-530-1442,500.0,,
195,7209,Ossington Ave / Harrison St,REGULAR,43.651111111111106,-79.4213888888889,0.0,Ossington Ave / Harrison St,19,"['KEY', 'CREDITCARD', 'TRANSITCARD', 'PHONE']",['P7249-7209'],647-669-4279,500.0,,
196,7210,Mary McCormick Rec Centre (Sheridan Ave),REGULAR,43.6475,-79.43305555555555,0.0,Mary McCormick Rec Centre (Sheridan Ave),15,"['KEY', 'CREDITCARD', 'TRANSITCARD', 'PHONE']",[],647-504-1948,500.0,,
197,7211,Fort York Blvd / Garrison Rd,REGULAR,43.6375,-79.40611111111112,0.0,Fort York Blvd / Garrison Rd,15,"['KEY', 'CREDITCARD', 'TRANSITCARD', 'PHONE']",[],647-669-3872,500.0,,
198,7216,Wellington St W / Stafford St,REGULAR,43.641281,-79.409339,0.0,Wellington St W / Stafford St,23,"['KEY', 'CREDITCARD', 'TRANSITCARD', 'PHONE']",[],647-643-9874,500.0,,
199,7217,Soho St / Queen St W,REGULAR,43.6494896,-79.393535,0.0,Soho St. / Queen St W,19,"['KEY', 'CREDITCARD', 'TRANSITCARD', 'PHONE']",['P7069-7217'],647-669-1785,500.0,,
200,7220,Lakeshore Blvd W / Ellis Ave,REGULAR,43.635932,-79.465083,0.0,Lakeshore Blvd W / Ellis Ave,19,"['KEY', 'CREDITCARD', 'TRANSITCARD', 'PHONE']",[],647-502-8498,1000.0,,
201,7221,High Park Subway Station,REGULAR,43.6543604,-79.4655296,0.0,High Park Subway Station,19,"['KEY', 'CREDITCARD', 'TRANSITCARD', 'PHONE']",[],647-669-0254,1000.0,,
202,7222,Sunnyside - Gus Ryder Pool,REGULAR,43.637894,-79.454823,0.0,Sunnyside - Gus Ryder Pool,27,"['KEY', 'CREDITCARD', 'TRANSITCARD', 'PHONE']",[],647-339-2011,1000.0,,
203,7223,Parkside Dr / Bloor St W - SMART,SMARTMAPFRAME,43.654501,-79.460053,0.0,Parkside Dr / Bloor St W,12,"['KEY', 'TRANSITCARD', 'PHONE']","['SMART MAP FRAME', 'P7223-7224']",647-669-0176,1000.0,,
204,7224,Bloor St W / High Park Ave (High Park),REGULAR,43.6535269,-79.4650569,0.0,Bloor St W / High Park Ave (High Park),18,"['KEY', 'CREDITCARD', 'TRANSITCARD', 'PHONE']",['P7223-7224'],647-405-1809,1000.0,,
205,7225,Lakeshore Blvd W / Windermere Ave,REGULAR,43.634896,-79.467763,0.0,Lakeshore Blvd W / Windermere Ave,19,"['KEY', 'CREDITCARD', 'TRANSITCARD', 'PHONE']",[],647-330-4430,1000.0,,
206,7226,Lakeshore Blvd W / The Boulevard Club,REGULAR,43.636731,-79.444966,0.0,Lakeshore Blvd W / The Boulevard Club,19,"['KEY', 'CREDITCARD', 'TRANSITCARD', 'PHONE']",[],647-643-9869,1000.0,,
207,7227,Martin Goodman Trail (Marilyn Bell Park),REGULAR,43.6314,-79.4304,0.0,Martin Goodman Trail (Marilyn Bell Park),14,"['KEY', 'CREDITCARD', 'TRANSITCARD', 'PHONE']",[],647-338-5620,1000.0,,
208,7228,Queen St W / Roncesvalles Ave,REGULAR,43.638399,-79.4464436,0.0,Queen St W / Roncesvalles Ave,19,"['KEY', 'CREDITCARD', 'TRANSITCARD', 'PHONE']",[],647-669-0897,1000.0,,
209,7229,Dundas St W / Roncesvalles Green P - SMART,SMARTMAPFRAME,43.6534268,-79.4512787,0.0,Dundas St W / Roncesvalles Green P,12,"['KEY', 'TRANSITCARD', 'PHONE']","['SMART MAP FRAME', 'P7229-7247', 'P7247-7229']",437-992-7377,1000.0,,
210,7230,Garden Ave / Roncesvalles Ave,REGULAR,43.643769,-79.447915,0.0,Garden Ave / Roncesvalles Ave,19,"['KEY', 'CREDITCARD', 'TRANSITCARD', 'PHONE']",[],647-669-0128,1000.0,,
211,7231,Wright / Sorauren (Sorauren Park) - SMART,SMARTMAPFRAME,43.646677,-79.442741,0.0,Wright Ave / Sorauren St (Sorauren Park),18,"['KEY', 'TRANSITCARD', 'PHONE']",['SMART MAP FRAME'],437-992-0663,1000.0,,
212,7232,Queen St W  /  Fuller Ave - SMART,SMARTMAPFRAME,43.640255,-79.439223,0.0,Queen St W / Fuller Ave,16,"['KEY', 'TRANSITCARD', 'PHONE']",['SMART MAP FRAME'],647-669-0539,1000.0,,
213,7233,King / Cowan Ave - SMART,SMARTMAPFRAME,43.637922,-79.431734,0.0,King St W / Cowan Ave,16,"['KEY', 'TRANSITCARD', 'PHONE']",['SMART MAP FRAME'],647-669-3856,1000.0,,
214,7234,Roncesvalles Ave / Marmaduke St,REGULAR,43.650492,-79.450842,0.0,Roncesvalles Ave / Marmaduke St,19,"['KEY', 'CREDITCARD', 'TRANSITCARD', 'PHONE']",[],647-400-6814,1000.0,,
215,7235,Bay St / College St (West Side) - SMART,SMARTMAPFRAME,43.660087,-79.385655,0.0,Bay St / College St (West Side),12,"['KEY', 'TRANSITCARD', 'PHONE']","['SMART MAP FRAME', 'P7235-7006']",437-992-0779,1000.0,,
216,7236,Thompson St / Broadview Ave - SMART,SMARTMAPFRAME,43.659471,-79.350325,0.0,Thompson St / Broadview Ave,12,"['KEY', 'TRANSITCARD', 'PHONE']","['SMART MAP FRAME', 'P7236-7124']",437-992-2970,1000.0,,
217,7237,Ward Ave / Wallace Ave,REGULAR,43.662251,-79.446036,0.0,Ward Ave / Wallace Ave,15,"['KEY', 'CREDITCARD', 'TRANSITCARD', 'PHONE']",['P7265-7237'],647-643-9824,1000.0,,
218,7238,Sorauren/Geoffrey (Sorauren Park) - SMART,SMARTMAPFRAME,43.649172,-79.4445087,0.0,Sorauren St / Geoffrey St (Sorauren Park),16,"['KEY', 'TRANSITCARD', 'PHONE']",['SMART MAP FRAME'],437-992-0948,1000.0,,
219,7239,Bloor St W / Manning Ave - SMART,SMARTMAPFRAME,43.663912,-79.416124,0.0,Bloor St W / Manning Ave,20,"['KEY', 'TRANSITCARD', 'PHONE']",['SMART MAP FRAME'],437-992-4514,1000.0,,
220,7240,Bloor St W / Shaw Ave - SMART,SMARTMAPFRAME,43.662403,-79.423098,0.0,Bloor St W / Shaw Ave,34,"['KEY', 'TRANSITCARD', 'PHONE']",['SMART MAP FRAME'],437-992-3508,1000.0,,
221,7241,519 Church St - SMART,SMARTMAPFRAME,43.666805,-79.381288,0.0,519 Church St,12,"['KEY', 'TRANSITCARD', 'PHONE']","['SMART MAP FRAME', 'P7241-7024']",437-992-6115,1000.0,,
222,7242,Lakeshore Blvd W / Ontario Dr,REGULAR,43.630254,-79.420317,0.0,Lakeshore Blvd W / Ontario Dr (Ontario Place),35,"['KEY', 'CREDITCARD', 'TRANSITCARD', 'PHONE']",[],647-669-1038,1000.0,,
223,7243,Exhibition GO Station,REGULAR,43.6356551,-79.4184785,0.0,Exhibition GO Station,15,"['KEY', 'CREDITCARD', 'TRANSITCARD', 'PHONE']",[],647-404-4533,1000.0,,
224,7244,Dufferin Gate - SMART,SMARTMAPFRAME,43.633473,-79.425679,0.0,Dufferin Gate,16,"['KEY', 'TRANSITCARD', 'PHONE']",['SMART MAP FRAME'],647-669-0734,1000.0,,
225,7245,Tecumseth St / Queen St W - SMART,SMARTMAPFRAME,43.646552,-79.406468,0.0,Tecumseth St / Queen St W,9,"['KEY', 'TRANSITCARD', 'PHONE']","['SMART MAP FRAME', 'P7245-7046']",437-992-2358,1000.0,,
226,7246,Yonge St / Bloor St,REGULAR,43.669969,-79.386532,0.0,Yonge St / Bloor St,14,"['KEY', 'CREDITCARD', 'TRANSITCARD', 'PHONE']",['P7276-7246'],647-669-3238,1000.0,,
227,7247,Howard Park Ave / Dundas St W - SMART,SMARTMAPFRAME,43.6521,-79.4486,0.0,Howard Park Ave / Dundas St W,12,"['KEY', 'TRANSITCARD', 'PHONE']","['SMART MAP FRAME', 'P7229-7247', 'P7247-7229']",437-992-0352,1000.0,,
228,7248,Baldwin Ave / Spadina Ave - SMART,SMARTMAPFRAME,43.654905,-79.398448,0.0,Baldwin Ave / Spadina Ave,20,"['KEY', 'TRANSITCARD', 'PHONE']",['SMART MAP FRAME'],437-992-0713,1000.0,,
229,7249,Dovercourt Rd / Harrison St (Green P) - SMART,SMARTMAPFRAME,43.651145,-79.423742,0.0,Dovercourt Rd / Harrison St (Green P) - SMART,12,"['KEY', 'TRANSITCARD', 'PHONE']","['SMART MAP FRAME', 'P7249-7209', 'P7368-7249']",437-992-5539,1000.0,,
230,7250,St. George St / Russell St - SMART,SMARTMAPFRAME,43.660296,-79.397107,0.0,St. George St / Russell St,12,"['KEY', 'TRANSITCARD', 'PHONE']","['SMART MAP FRAME', 'P7250-7358']",647-338-0572,1000.0,,
231,7251,The Royal Ontario Museum (Bloor St Entrance),REGULAR,43.668561,-79.394403,0.0,The Royal Ontario Museum (Bloor St Entrance),19,"['KEY', 'CREDITCARD', 'TRANSITCARD', 'PHONE']",[],647-402-3730,1000.0,,
232,7252,Robert St / Bloor St W - SMART,SMARTMAPFRAME,43.665846,-79.404998,0.0,Robert St / Bloor St W,18,"['KEY', 'TRANSITCARD', 'PHONE']",['SMART MAP FRAME'],437-9924908,1000.0,,
233,7253,John St  / Mercer St - SMART,SMARTMAPFRAME,43.6461,-79.3895,0.0,John St / Mercer St - SMART,12,"['KEY', 'TRANSITCARD', 'PHONE']","['SMART MAP FRAME', 'P7253-7053']",647-649-4986,1000.0,,
234,7254,Borden St / Bloor St W - SMART,SMARTMAPFRAME,43.665461,-79.40848,0.0,Borden St / Bloor St W,12,"['KEY', 'TRANSITCARD', 'PHONE']","['SMART MAP FRAME', 'P7254-7061']",437-992-6306,1000.0,,
235,7255,Stewart St / Bathurst St  - SMART,SMARTMAPFRAME,43.643307,-79.402176,0.0,Stewart St / Bathurst St,16,"['KEY', 'TRANSITCARD', 'PHONE']",['SMART MAP FRAME'],437-992-4272,1000.0,,
236,7256,Vanauley St / Queen St W - SMART,SMARTMAPFRAME,43.648437,-79.39838,0.0,Vanauley St / Queen St W,9,"['KEY', 'TRANSITCARD', 'PHONE']","['SMART MAP FRAME', 'P7256-7069']",437-992-6550,1000.0,,
237,7257,Dundas St W / St. Patrick St,REGULAR,43.6545174,-79.3895315,0.0,Dundas St W / St. Patrick St,17,"['KEY', 'CREDITCARD', 'TRANSITCARD', 'PHONE']",[],647-400-9727,1000.0,,
238,7258,Queen St E / Larchmount Ave,REGULAR,43.662279,-79.334166,0.0,Queen St E / Larchmount Ave,25,"['KEY', 'CREDITCARD', 'TRANSITCARD', 'PHONE']",[],647-504-9410,1000.0,,
239,7259,Lower Spadina Ave / Lakeshore Blvd,REGULAR,43.638497,-79.39192,0.0,Lower Spadina Ave / Lakeshore Blvd W,19,"['KEY', 'CREDITCARD', 'TRANSITCARD', 'PHONE']",[],647-402-7126,1000.0,,
240,7260,Spadina Ave / Adelaide St W,REGULAR,43.646688,-79.395267,0.0,Spadina Ave / Adelaide St W,15,"['KEY', 'CREDITCARD', 'TRANSITCARD', 'PHONE']",[],647-712-8927,1000.0,,
241,7261,Queens Quay E / Lower Sherbourne St,REGULAR,43.645215,-79.364898,0.0,Queens Quay E / Lower Sherbourne,26,"['KEY', 'CREDITCARD', 'TRANSITCARD', 'PHONE']",[],437-688-8691,1000.0,M5A 3Y4,
242,7262,Wychwood Ave / Benson Ave - SMART,SMARTMAPFRAME,43.6809164,-79.4229684,0.0,Wychwood Ave / Benson Ave,16,"['KEY', 'TRANSITCARD', 'PHONE']",['SMART MAP FRAME'],437-992-6472,1000.0,,
243,7263,Walton St / Elizabeth St - SMART,SMARTMAPFRAME,43.657838,-79.38631,0.0,Walton St / Elizabeth St,20,"['KEY', 'TRANSITCARD', 'PHONE']",['SMART MAP FRAME'],437-992-6002,1000.0,M8Z4T4,
244,7264,Bloor St E / Huntley St - SMART,SMARTMAPFRAME,43.671535,-79.379173,0.0,Bloor St E / Huntley St,15,"['KEY', 'TRANSITCARD', 'PHONE']",['SMART MAP FRAME'],437-992-3239,1000.0,,
245,7265,Wallace Ave / Symington Ave - SMART,SMARTMAPFRAME,43.661324,-79.449534,0.0,Wallace Ave / Symington Ave,12,"['KEY', 'TRANSITCARD', 'PHONE']","['SMART MAP FRAME', 'P7265-7237']",437-992-0966,1000.0,,
246,7266,Victoria Park Subway Station - SMART,SMARTMAPFRAME,43.6940155,-79.2889842,0.0,Victoria Park Subway Station,20,"['KEY', 'TRANSITCARD', 'PHONE']",['SMART MAP FRAME'],437-992-7115,1000.0,,
247,7267,Dundas St E / Pembroke St - SMART,SMARTMAPFRAME,43.658295,-79.372346,0.0,Dundas St E / Pembroke St,16,"['KEY', 'TRANSITCARD', 'PHONE']",['SMART MAP FRAME'],437-992-1458,1000.0,,
248,7268,111 Bond St (North of Dundas St E)  - SMART,SMARTMAPFRAME,43.656927,-79.378497,0.0,111 Bond St (North of Dundas St E),16,"['KEY', 'TRANSITCARD', 'PHONE']",['SMART MAP FRAME'],437-992-1826,1000.0,,
249,7269,Toronto Eaton Centre (Yonge St),REGULAR,43.655431,-79.380653,0.0,Toronto Eaton Centre (Yonge St),14,"['KEY', 'CREDITCARD', 'TRANSITCARD', 'PHONE']",[],647-669-0729,1000.0,,
250,7270,Church St / Dundas St E - SMART,SMARTMAPFRAME,43.657024,-79.377257,0.0,Church St / Dundas St E,15,"['KEY', 'TRANSITCARD', 'PHONE']",['SMART MAP FRAME'],437-992-0805,1000.0,,
251,7271,Yonge St / Alexander St - SMART,SMARTMAPFRAME,43.662862,-79.383572,0.0,Yonge St / Alexander St,18,"['KEY', 'TRANSITCARD', 'PHONE']",['SMART MAP FRAME'],437-992-3627,1000.0,,
252,7272,Yonge St / Dundonald St - SMART,REGULAR,43.665801,-79.384796,0.0,Yonge St / Dundonald St,12,"['KEY', 'CREDITCARD', 'TRANSITCARD', 'PHONE']",['P7272-7051'],437-992-6086,1000.0,,
253,7273,Bay St / Charles St - SMART,SMARTMAPFRAME,43.668153,-79.38891,0.0,Bay St / Charles St W,20,"['KEY', 'TRANSITCARD', 'PHONE']",['SMART MAP FRAME'],437-992-7265,1000.0,,
254,7274,Queen's Park Cres E / Grosvenor St - SMART,SMARTMAPFRAME,43.661803,-79.389682,0.0,Queen's Park Cres E / Grosvenor St,12,"['KEY', 'TRANSITCARD', 'PHONE']","['SMART MAP FRAME', 'P7274-7502']",437-992-0939,1000.0,,
255,7275,Queen St W / James St,REGULAR,43.652276,-79.380701,0.0,Queen St W / James St,11,"['KEY', 'CREDITCARD', 'TRANSITCARD', 'PHONE']",['P7275-7462'],647-669-4331,1000.0,,
256,7276,Bloor St W / Balmuto St,REGULAR,43.669903,-79.387802,0.0,Bloor St W / Balmuto St,11,"['KEY', 'CREDITCARD', 'TRANSITCARD', 'PHONE']",['P7276-7246'],647-669-4314,1000.0,,
257,7277,Chorley Park - SMART,SMARTMAPFRAME,43.6856,-79.3718,0.0,Chorley Park,12,"['KEY', 'TRANSITCARD', 'PHONE']","['SMART MAP FRAME', 'P7277-7488', 'P7488-7277']",437-992-0849,1000.0,,
258,7278,Mallon Ave / Jones Ave -SMART,SMARTMAPFRAME,43.66587,-79.33443,0.0,Mallon Ave / Jones Ave,15,"['KEY', 'TRANSITCARD', 'PHONE']",['SMART MAP FRAME'],437-992-0901,1000.0,M4M2Z1,
259,7279,Rosehill Ave / Avoca Ave - SMART,SMARTMAPFRAME,43.687999,-79.38906,0.0,Rosehill Ave / Avoca Ave,16,"['KEY', 'TRANSITCARD', 'PHONE']",['SMART MAP FRAME'],437-992-6053,1000.0,,
260,7280,Charles St E / Jarvis St - SMART,SMARTMAPFRAME,43.669604,-79.381171,0.0,Charles St E / Jarvis St,20,"['KEY', 'TRANSITCARD', 'PHONE']",['SMART MAP FRAME'],437-992-7283,1000.0,,
261,7281,Charles St W / Balmuto St - SMART,SMARTMAPFRAME,43.668427,-79.38725,0.0,Charles St W / Balmuto St,16,"['KEY', 'TRANSITCARD', 'PHONE']",['SMART MAP FRAME'],437-992-2844,1000.0,,
262,7282,Adelaide St W / Bay St - SMART,SMARTMAPFRAME,43.650152,-79.379856,0.0,Adelaide St W / Bay St,20,"['KEY', 'TRANSITCARD', 'PHONE']",['SMART MAP FRAME'],437-992-6479,1000.0,,
263,7283,Front St W / Bay St (South Side),REGULAR,43.64595,-79.378761,0.0,Front St W / Bay St (South Side),19,"['KEY', 'CREDITCARD', 'TRANSITCARD', 'PHONE']",['P7169-7283'],647-388-9361,1000.0,,
264,7284,York St / King St W - SMART,SMARTMAPFRAME,43.648,-79.3834,0.0,York St / King St W,16,"['KEY', 'TRANSITCARD', 'PHONE']",['SMART MAP FRAME'],437-992-4749,1000.0,,
265,7285,Spadina Ave / Harbord St - SMART,SMARTMAPFRAME,43.6629228,-79.4018451,0.0,Spadina Ave / Harbord St,12,"['KEY', 'TRANSITCARD', 'PHONE']","['SMART MAP FRAME', 'P7285-7170']",437-992-6585,1000.0,,
266,7286,Gerrard St E / Broadview - SMART,SMARTMAPFRAME,43.665656,-79.352055,0.0,Gerrard St E / Broadview,18,"['KEY', 'TRANSITCARD', 'PHONE']",['SMART MAP FRAME'],437-992-0777,1000.0,,
267,7287,Queen St E / Pape Ave - SMART,SMARTMAPFRAME,43.661673,-79.337789,0.0,Queen St E / Pape Ave,8,"['KEY', 'TRANSITCARD', 'PHONE']","['SMART MAP FRAME', 'P7287-7096']",437-992-0758,1000.0,,
268,7288,Humber Bay Shores Park West,REGULAR,43.6224434,-79.480284,0.0,Humber Bay Shores Park West,31,"['KEY', 'CREDITCARD', 'TRANSITCARD', 'PHONE']",[],647-643-9762,1000.0,,
269,7289,Humber Bay Shores Park East,REGULAR,43.6308933,-79.4722622,0.0,Humber Bay Shores Park East,23,"['KEY', 'CREDITCARD', 'TRANSITCARD', 'PHONE']",[],647-643-9740,1000.0,,
270,7291,Lakeshore Blvd E / Parliament St,REGULAR,43.647562,-79.36138,0.0,Lakeshore Blvd E / Parliament St,15,"['KEY', 'CREDITCARD', 'TRANSITCARD', 'PHONE']",[],437-770-9931,1000.0,,
271,7292,Granby St / Church St - SMART,SMARTMAPFRAME,43.6605302,-79.3787235,0.0,Granby St / Church St -SMART,12,"['KEY', 'TRANSITCARD', 'PHONE']","['SMART MAP FRAME', 'P7292-7079']",647-309-0035,1000.0,,
272,7293,College St / McCaul St,REGULAR,43.65906,-79.393771,0.0,College St / McCaul St,17,"['KEY', 'CREDITCARD', 'TRANSITCARD', 'PHONE']",[],647-401-2884,1000.0,,
273,7296,Westmoreland Ave / Fernbank Ave,REGULAR,43.665327,-79.43235,0.0,Westmoreland Ave / Fernbank Ave,19,"['KEY', 'CREDITCARD', 'TRANSITCARD', 'PHONE']",[],437-771-6958,1000.0,,
274,7297,Havelock St / Dufferin Park,REGULAR,43.657343,-79.43112,0.0,Havelock St / Dufferin Park,19,"['KEY', 'CREDITCARD', 'TRANSITCARD', 'PHONE']",[],437-772-3680,1000.0,,
275,7298,Bathurst St / Adelaide St W,REGULAR,43.645324,-79.40345,0.0,Bathurst St / Adelaide St W,25,"['KEY', 'CREDITCARD', 'TRANSITCARD', 'PHONE']",[],437-776-9943,1000.0,,
276,7299,Mill St / Parliament St,REGULAR,43.650256,-79.36163,0.0,Mill St / Parliament St,15,"['KEY', 'CREDITCARD', 'TRANSITCARD', 'PHONE']",[],437-922-8965,1000.0,,
277,7301,Primrose Ave / Davenport Rd,REGULAR,43.67142,-79.445947,0.0,Primrose Ave / Davenport Rd,15,"['KEY', 'CREDITCARD', 'TRANSITCARD', 'PHONE']",[],437-928-7044,1000.0,,
278,7302,Winona Dr / Davenport Rd,REGULAR,43.674923,-79.430465,0.0,Winona Dr / Davenport Rd,11,"['KEY', 'CREDITCARD', 'TRANSITCARD', 'PHONE']","['P7327-7302', 'P7302-7327']",647-308-8067,1000.0,,
279,7303,Queen St. E / Woodward Av,REGULAR,43.665269,-79.319796,0.0,Queen St. E / Woodward Av,19,"['KEY', 'CREDITCARD', 'TRANSITCARD', 'PHONE']",[],437-990-2838,1000.0,,
280,7309,Queen St. E / Rhodes Ave.,REGULAR,43.666224,-79.317693,0.0,Queen St. E / Rhodes Ave.,23,"['KEY', 'CREDITCARD', 'TRANSITCARD', 'PHONE']",[],647-308-0520,1000.0,,
281,7311,Sherbourne St / Isabella St,REGULAR,43.669576,-79.375961,0.0,Sherbourne St / Isabella St,15,"['KEY', 'CREDITCARD', 'TRANSITCARD', 'PHONE']",[],437-991-5923,1000.0,,
282,7312,Amelia St. / Sumach St.,REGULAR,43.66852,-79.363525,0.0,Amelia St. / Sumach St.,11,"['KEY', 'CREDITCARD', 'TRANSITCARD', 'PHONE']",['P7312-7119'],437-991-7841,1000.0,,
283,7313,Coxwell Ave/  Lakeshore Blvd E,REGULAR,43.662771,-79.315223,0.0,Coxwell Ave / Lakeshore Blvd E,15,"['KEY', 'CREDITCARD', 'TRANSITCARD', 'PHONE']",[],437-994-6254,1000.0,,
284,7314,Queen St. E / Eastern Ave,REGULAR,43.667208,-79.312315,0.0,Queen St. E / Eastern Ave,15,"['KEY', 'CREDITCARD', 'TRANSITCARD', 'PHONE']",[],437-995-6804,1000.0,,
285,7315,Queen St E / Hammersmith Ave,REGULAR,43.671349,-79.29451,0.0,Queen St E / Hammersmith Ave,11,"['KEY', 'CREDITCARD', 'TRANSITCARD', 'PHONE']","['P7330-7315', 'P7315-7330']",437-995-8093,1000.0,,
286,7316,Queen St. E / Spruce Hill Rd.,REGULAR,43.672571,-79.289,0.0,Queen St. E / Spruce Hill Rd.,14,"['KEY', 'CREDITCARD', 'TRANSITCARD', 'PHONE']",[],437-997-7187,1000.0,,
287,7317,Hubbard Blvd / Balsam Av,REGULAR,43.669328,-79.288949,0.0,Hubbard Blvd / Balsam Av,19,"['KEY', 'CREDITCARD', 'TRANSITCARD', 'PHONE']",[],437-999-2694,1000.0,,
288,7318,Hubbard Blvd. / Glen Manor Dr.,REGULAR,43.668633,-79.291162,0.0,Hubbard Blvd. / Glen Manor Dr.,15,"['KEY', 'CREDITCARD', 'TRANSITCARD', 'PHONE']",[],647-283-9121,1000.0,,
289,7319,Lakeshore Blvd E / Knox Ave,REGULAR,43.660206,-79.3244,0.0,Lakeshore Blvd. E / Knox Ave,11,"['KEY', 'CREDITCARD', 'TRANSITCARD', 'PHONE']",['P7319-7357'],647-286-6124,1000.0,,
290,7320,Front St W / University Ave (1),REGULAR,43.6451635,-79.3831757,0.0,Front St W / University Ave (1),17,"['KEY', 'CREDITCARD', 'TRANSITCARD', 'PHONE']",[],647-291-7762,1000.0,,
291,7321,Front St W / University Ave (2),REGULAR,43.6452972,-79.3827914,0.0,Front St W / University Ave (2),17,"['KEY', 'CREDITCARD', 'TRANSITCARD', 'PHONE']",[],647-292-3168,1000.0,,
292,7322,King St W / Brant St,REGULAR,43.645062,-79.397345,0.0,King St W / Brant St,23,"['KEY', 'CREDITCARD', 'TRANSITCARD', 'PHONE']",[],647-289-6923,1000.0,M6G1X2,
293,7323,457 King St. W. at Spadina,REGULAR,43.6452091,-79.3960744,0.0,457 King St W.,17,"['KEY', 'CREDITCARD', 'TRANSITCARD', 'PHONE']",[],647-295-6273,1000.0,,
294,7324,King St W / Charlotte St,REGULAR,43.645572,-79.39399,0.0,King St W / Charlotte St,17,"['KEY', 'CREDITCARD', 'TRANSITCARD', 'PHONE']",[],647-297-6118,1000.0,,
295,7326,Davenport Rd / Lansdowne Ave.,REGULAR,43.671526,-79.44874,0.0,Davenport Rd / Landsdowne Rd,19,"['KEY', 'CREDITCARD', 'TRANSITCARD', 'PHONE']",[],647-308-7857,1000.0,,
296,7327,Davenport Rd / Oakwood Rd - SMART,SMARTMAPFRAME,43.674453,-79.43439,0.0,Davenport Rd / Oakwood Rd - SMART,12,"['KEY', 'TRANSITCARD', 'PHONE']","['SMART MAP FRAME', 'P7327-7302', 'P7302-7327']",647-298-0692,1000.0,,
297,7328,Roxborough St W / Yonge St,REGULAR,43.678077,-79.390328,0.0,Roxborough St W / Yonge St,17,"['KEY', 'CREDITCARD', 'TRANSITCARD', 'PHONE']",[],647-618-3390,1000.0,,
298,7329,Crawford St / Queen St W,REGULAR,43.645665,-79.415345,0.0,Crawford St / Queen St W,19,"['KEY', 'CREDITCARD', 'TRANSITCARD', 'PHONE']",[],647-328-3562,1000.0,,
299,7330,Lee Ave / Queen St E,REGULAR,43.669863,-79.297786,0.0,Lee Ave / Queen St E,11,"['KEY', 'CREDITCARD', 'TRANSITCARD', 'PHONE']","['P7330-7315', 'P7315-7330']",647-330-2116,1000.0,,
300,7331,Coxwell Ave / Plains Rd,REGULAR,43.69595,-79.328535,0.0,Coxwell Ave / Plains Rd,19,"['KEY', 'CREDITCARD', 'TRANSITCARD', 'PHONE']",['P7194-7331'],647-338-3505,1000.0,,
301,7332,200 Bloor St. E.,REGULAR,43.671561,-79.38117,0.0,200 Bloor St. E.,23,"['KEY', 'CREDITCARD', 'TRANSITCARD', 'PHONE']",[],647-669-3468,1000.0,,
302,7333,King St E / Victoria St,REGULAR,43.649465,-79.3766,0.0,King St E / Victoria St,18,"['KEY', 'CREDITCARD', 'TRANSITCARD', 'PHONE']",[],647-339-5578,1000.0,,
303,7334,Simcoe St / Wellington St North,REGULAR,43.6462176,-79.3855048,0.0,Simcoe St / Wellington St 2,15,"['KEY', 'CREDITCARD', 'TRANSITCARD', 'PHONE']",[],647-400-0149,1000.0,,
304,7335,Bay St / Bloor St W (West Side),REGULAR,43.669244,-79.3894,0.0,1188 Bay St,15,"['KEY', 'CREDITCARD', 'TRANSITCARD', 'PHONE']",['P7384-7335'],647-719-3074,1000.0,M6H1a1,
305,7336,Queen St E / Alton Av,REGULAR,43.663912,-79.327987,0.0,Queen St E / Alton Av,19,"['KEY', 'CREDITCARD', 'TRANSITCARD', 'PHONE']",[],647-402-6382,1000.0,,
306,7337,Gerrard Square Mall (1010 Gerrard St E),REGULAR,43.668553,-79.338673,0.0,Gerrard Square Mall (1010 Gerrard St E),15,"['KEY', 'CREDITCARD', 'TRANSITCARD', 'PHONE']",[],647-404-3197,1000.0,,
307,7338,Logan Ave / Bain Ave,REGULAR,43.6720273,-79.3470557,0.0,Logan Ave / Bain Ave,11,"['KEY', 'CREDITCARD', 'TRANSITCARD', 'PHONE']",['P7338-7339'],647-404-6830,1000.0,,
308,7339,Carlaw Ave / Strathcona Ave,REGULAR,43.6753188,-79.3462789,0.0,Carlaw Ave / Strathcona Ave,15,"['KEY', 'CREDITCARD', 'TRANSITCARD', 'PHONE']",['P7338-7339'],647-407-3193,1000.0,,
309,7340,Blake St / Boultbee Ave,REGULAR,43.672453,-79.338259,0.0,Blake St / Boultbee Ave,15,"['KEY', 'CREDITCARD', 'TRANSITCARD', 'PHONE']",[],647-408-4316,1000.0,,
310,7341,Eastern Ave / Winnifred Ave,REGULAR,43.6592088,-79.3348396,0.0,Eastern Ave / Winnifred Ave,15,"['KEY', 'CREDITCARD', 'TRANSITCARD', 'PHONE']",['P7342-7341'],647-500-1782,1000.0,,
311,7342,Morse St / Eastern Ave,REGULAR,43.657991,-79.340075,0.0,Morse St / Eastern Ave,11,"['KEY', 'CREDITCARD', 'TRANSITCARD', 'PHONE']",['P7342-7341'],647-449-8038,1000.0,,
312,7343,Alton Ave / Dundas St E (Greenwood Park),REGULAR,43.66745,-79.329408,0.0,Alton Ave / Dundas St E (Greenwood Park),23,"['KEY', 'CREDITCARD', 'TRANSITCARD', 'PHONE']",[],647-449-0293,1000.0,,
313,7344,Cherry Beach,REGULAR,43.637764,-79.345359,0.0,Cherry Beach,25,"['KEY', 'CREDITCARD', 'TRANSITCARD', 'PHONE']",[],647-501-9648,1000.0,,
314,7345,Cherry Beach Sports Field (55 Unwin Ave),REGULAR,43.640757,-79.343144,0.0,Cherry Beach Sports Field (55 Unwin Ave),15,"['KEY', 'CREDITCARD', 'TRANSITCARD', 'PHONE']",[],647-504-2481,1000.0,,
315,7346,Logan Av / Gerrard St E,REGULAR,43.6672144,-79.3452697,0.0,Logan Av / Gerrard St E,15,"['KEY', 'CREDITCARD', 'TRANSITCARD', 'PHONE']",[],647-504-9664,1000.0,,
316,7347,Regal Rd / Dufferin St,REGULAR,43.673939,-79.441159,0.0,Regal Rd / Dufferin St,15,"['KEY', 'CREDITCARD', 'TRANSITCARD', 'PHONE']",[],647-530-4259,1000.0,,
317,7348,Pape Ave / Gamble Ave,REGULAR,43.690237,-79.350119,0.0,Pape Ave / Gamble Ave,19,"['KEY', 'CREDITCARD', 'TRANSITCARD', 'PHONE']",[],647-530-8374,1000.0,,
318,7349,Gamble Ave / Broadview Ave,REGULAR,43.689211,-79.35438,0.0,Gamble Ave / Broadview Ave,23,"['KEY', 'CREDITCARD', 'TRANSITCARD', 'PHONE']",[],437-688-6110,1000.0,,
319,7350,Broadview Ave / Westwood Ave,REGULAR,43.6848652,-79.356602,0.0,Broadview Ave/ Westwood Ave,23,"['KEY', 'CREDITCARD', 'TRANSITCARD', 'PHONE']",[],647-502-7565,1000.0,,
320,7351,Pretoria Av / Broadview Av,REGULAR,43.6783213,-79.35822,0.0,Pretoria Av / Broadview Av,19,"['KEY', 'CREDITCARD', 'TRANSITCARD', 'PHONE']",[],647-537-6941,1000.0,,
321,7352,Cosburn Ave / Donlands Ave,REGULAR,43.690537,-79.341307,0.0,Cosburn Ave / Donlands Ave,19,"['KEY', 'CREDITCARD', 'TRANSITCARD', 'PHONE']",[],647-620-2577,1000.0,,
322,7353,Fulton Ave / Pape Ave,REGULAR,43.68395,-79.347046,0.0,Fulton Ave / Pape Ave,19,"['KEY', 'CREDITCARD', 'TRANSITCARD', 'PHONE']",['P7387-7353'],647-719-4165,1000.0,,
323,7354,Tommy Thompson Park (Leslie Street Spit),REGULAR,43.651737,-79.32325,0.0,Tommy Thompson Park (Leslie Street Spit),19,"['KEY', 'CREDITCARD', 'TRANSITCARD', 'PHONE']",[],647-618-5143,1000.0,M8Z4T4,
324,7355,Beltline Trail / Chaplin Cres.,REGULAR,43.704461,-79.423122,0.0,Beltline Trail / Chaplin Cres.,15,"['KEY', 'CREDITCARD', 'TRANSITCARD', 'PHONE']",[],647-621-3920,1000.0,,
325,7356,King St E / Ontario St.,REGULAR,43.651885,-79.3649,0.0,King St E / Ontario St.,14,"['KEY', 'CREDITCARD', 'TRANSITCARD', 'PHONE']",['P7506-7356'],647-622-7822,1000.0,,
326,7357,Lakeshore Blvd E /Leslie St,REGULAR,43.659195,-79.329196,0.0,Lakeshore Blvd E / Leslie St,19,"['KEY', 'CREDITCARD', 'TRANSITCARD', 'PHONE']",['P7319-7357'],647-621-7986,1000.0,,
327,7358,Gailbraith Rd / King’s College Cr. (U of T),REGULAR,43.660382,-79.3954,0.0,Gailbraith Rd / King’s College Cr. (U of T),17,"['KEY', 'CREDITCARD', 'TRANSITCARD', 'PHONE']",['P7250-7358'],647-620-9421,1000.0,,
328,7359,Rosedale Park (20 Schofield Ave),REGULAR,43.682645,-79.377557,0.0,Rosedale Park (20 Schofield Ave),23,"['KEY', 'CREDITCARD', 'TRANSITCARD', 'PHONE']",[],647-627-7470,1000.0,,
329,7360,Concord Av / Dewson St,REGULAR,43.656945,-79.424911,0.0,Concord Av / Dewson St,17,"['KEY', 'CREDITCARD', 'TRANSITCARD', 'PHONE']",['P7196-7360'],647-632-1495,1000.0,,
330,7361,Hocken Ave./Vaughan Rd.,REGULAR,43.6817346,-79.4184725,0.0,Hocken Ave./Vaughan Rd.,19,"['KEY', 'CREDITCARD', 'TRANSITCARD', 'PHONE']",[],647-632-3844,1000.0,,
331,7362,St Clair Ave W / Bathurst St.,REGULAR,43.683296,-79.418734,0.0,St Clair Ave W / Bathurst St.,19,"['KEY', 'CREDITCARD', 'TRANSITCARD', 'PHONE']",[],647-631-4703,1000.0,,
332,7363,Wells Hill Ave / St Clair Ave W,REGULAR,43.683351,-79.41562,0.0,Wells Hill Ave / St Clair Ave W,15,"['KEY', 'CREDITCARD', 'TRANSITCARD', 'PHONE']",[],647-632-4134,1000.0,,
333,7364,Queen St E / Nursewood Rd (Neville Park Loop),REGULAR,43.673831,-79.281455,0.0,Queen St E / Nursewood Rd (Neville Park Loop),19,"['KEY', 'CREDITCARD', 'TRANSITCARD', 'PHONE']",[],647-638-6254,1000.0,,
334,7365,Kew Beach Ave / Kenilworth Ave,REGULAR,43.666325,-79.3014,0.0,Kew Beach Ave / Kenilworth Ave,23,"['KEY', 'CREDITCARD', 'TRANSITCARD', 'PHONE']",[],647-640-6506,1000.0,,
335,7366,Fort York Blvd / Bathurst St SMART,SMARTMAPFRAME,43.639052,-79.399792,0.0,Fort York Blvd / Bathurst St SMART,20,"['KEY', 'TRANSITCARD', 'PHONE']",['SMART MAP FRAME'],647-640-6519,1000.0,,
336,7367,Alma Ave / Gladstone Ave SMART,SMARTMAPFRAME,43.6448617,-79.42822,0.0,Alma Ave / Gladstone Ave SMART,14,"['KEY', 'TRANSITCARD', 'PHONE']",['SMART MAP FRAME'],647-642-3920,1000.0,,
337,7368,Lisgar St / Dundas St SMART,SMARTMAPFRAME,43.6493472,-79.42668,0.0,Lisgar St / Dundas St SMART,8,"['KEY', 'TRANSITCARD', 'PHONE']","['SMART MAP FRAME', 'P7368-7249']",647-646-6416,1000.0,,
338,7369,Dupont St / Emerson Ave SMART,SMARTMAPFRAME,43.667266,-79.443946,0.0,Dupont St / Emerson Ave  SMART,16,"['KEY', 'TRANSITCARD', 'PHONE']",['SMART MAP FRAME'],647-646-4980,1000.0,,
339,7371,Eglinton Ave W / Henning Ave SMART,SMARTMAPFRAME,43.7063473,-79.40161,0.0,Eglinton Ave W / Henning Ave SMART,20,"['KEY', 'TRANSITCARD', 'PHONE']",['SMART MAP FRAME'],647-640-6538,1000.0,,
340,7372,King St W / Portland St,REGULAR,43.6442859,-79.40074,0.0,King St W / Portland St,19,"['KEY', 'CREDITCARD', 'TRANSITCARD', 'PHONE']",[],647-706-3507,1000.0,,
341,7373,George St / King St E,REGULAR,43.6509552,-79.3707,0.0,George St / King St E,14,"['KEY', 'CREDITCARD', 'TRANSITCARD', 'PHONE']",[],647-646-9532,1000.0,,
342,7374,Frederick St / The Esplanade,REGULAR,43.6487245,-79.36839,0.0,Frederick St / The Esplanade,19,"['KEY', 'CREDITCARD', 'TRANSITCARD', 'PHONE']",[],647-710-2519,1000.0,,
343,7375,Front St E / Scott St,REGULAR,43.6476616,-79.37549,0.0,Front St E / Scott St,11,"['KEY', 'CREDITCARD', 'TRANSITCARD', 'PHONE']",['P7375-7013'],647-718-7245,1000.0,,
344,7376,Frobisher Ave / Lascelles Blvd,REGULAR,43.696708,-79.40045,0.0,Frobisher Ave / Lascelles Blvd,19,"['KEY', 'CREDITCARD', 'TRANSITCARD', 'PHONE']",[],647-719-1504,1000.0,,
345,7377,Balliol St / Yonge St  SMART,SMARTMAPFRAME,43.6978701,-79.39419,0.0,Balliol St / Yonge St SMART,20,"['KEY', 'TRANSITCARD', 'PHONE']",['SMART MAP FRAME'],647-719-2731,1000.0,,
346,7378,Yonge St / Davisville Ave,REGULAR,43.6975969,-79.39654,0.0,Yonge St / Davisville Ave,15,"['KEY', 'CREDITCARD', 'TRANSITCARD', 'PHONE']",[],647-719-3185,1000.0,,
347,7379,Lawton Blvd / Yonge St,REGULAR,43.6910667,-79.39535,0.0,Lawton Blvd / Yonge St,14,"['KEY', 'CREDITCARD', 'TRANSITCARD', 'PHONE']",[],437-688-9410,1000.0,,
348,7380,Erskine Ave / Yonge St SMART,SMARTMAPFRAME,43.7112153,-79.39894,0.0,Erskine Ave / Yonge St SMART,16,"['KEY', 'TRANSITCARD', 'PHONE']",['SMART MAP FRAME'],437-992-5714,1000.0,,
349,7381,Roehampton Ave / Yonge St,REGULAR,43.7080145,-79.39826,0.0,Roehampton Ave / Yonge St,19,"['KEY', 'CREDITCARD', 'TRANSITCARD', 'PHONE']",[],437-688-8762,1000.0,,
350,7382,Simcoe St / Adelaide St W,REGULAR,43.6481303,-79.38632,0.0,Simcoe St / Adelaide St W,20,"['KEY', 'CREDITCARD', 'TRANSITCARD', 'PHONE']",[],437-688-7395,1000.0,,
351,7383,12 Harbour St,REGULAR,43.6425636,-79.3762,0.0,12 Harbour St,15,"['KEY', 'CREDITCARD', 'TRANSITCARD', 'PHONE']",[],437-688-7570,1000.0,,
352,7384,Cumberland Ave / Bay St SMART,SMARTMAPFRAME,43.6704537,-79.39014,0.0,Cumberland Ave / Bay St SMART,12,"['KEY', 'TRANSITCARD', 'PHONE']","['SMART MAP FRAME', 'P7384-7335']",437-688-7658,1000.0,,
353,7385,20 Charles St E,ELECTRICBIKESTATION,43.6691099,-79.38551,0.0,20 Charles St E,23,"['KEY', 'CREDITCARD', 'TRANSITCARD', 'PHONE']",[],437-688-7596,1000.0,,
354,7386,D'Arcy St. /McCaul St. SMART,SMARTMAPFRAME,43.655227,-79.39201,0.0,"D'Arcy St, /McCaul St. SMART",16,"['KEY', 'TRANSITCARD', 'PHONE']",['SMART MAP FRAME'],647-241-3179,1000.0,,
355,7387,Mortimer Ave / Carlaw Ave SMART,SMARTMAPFRAME,43.685167,-79.34962,0.0,Mortimer Ave / Carlaw Ave SMART,12,"['KEY', 'TRANSITCARD', 'PHONE']","['SMART MAP FRAME', 'P7387-7353']",647-271-5899,1000.0,,
356,7388,Broadview Ave / Danforth Ave,REGULAR,43.6772,-79.35858,0.0,Broadview Ave / Danforth Ave,15,"['KEY', 'CREDITCARD', 'TRANSITCARD', 'PHONE']",[],437-688-7724,1000.0,,
357,7389,College Park- Gerrard Entrance,REGULAR,43.658938,-79.383518,0.0,College Park- Gerrard Entrance,25,"['KEY', 'CREDITCARD', 'TRANSITCARD', 'PHONE']",[],437-688-7824,1000.0,,
358,7391,Yonge St / Dundas Sq,REGULAR,43.655766,-79.3802,0.0,Yonge St / Dundas Sq,27,"['KEY', 'CREDITCARD', 'TRANSITCARD', 'PHONE']",[],437-688-7962,1000.0,,Yonge St / Dundas Sq
359,7392,Woodbine Subway Green P SMART,SMARTMAPFRAME,43.686829,-79.311073,0.0,Woodbine Subway Green P (SMART),20,"['KEY', 'TRANSITCARD', 'PHONE']",['SMART MAP FRAME'],437-688-8082,1000.0,24553,
360,7395,Dentonia Park,REGULAR,43.694341,-79.291416,0.0,Dentonia Park Station,23,"['KEY', 'CREDITCARD', 'TRANSITCARD', 'PHONE']",[],437-688-8093,1609.34,J4G 29,
361,7398,York St / Harbour St,REGULAR,43.64116,-79.37979,0.0,York St / Harbour St,38,"['KEY', 'CREDITCARD', 'TRANSITCARD', 'PHONE']",[],437-688-8725,1609.34,M5J 0B6,
362,7399,Lower Jarvis / Queens Quay E,REGULAR,43.64422,-79.36927,0.0,Lower Jarvis / Queens Quay E,18,"['KEY', 'CREDITCARD', 'TRANSITCARD', 'PHONE']",[],416-277-0432,1609.34,M5E 1Z2,
363,7400,Polson Pier,REGULAR,43.641675,-79.354006,0.0,Polson Pier,23,"['KEY', 'CREDITCARD', 'TRANSITCARD', 'PHONE']",[],437-688-8219,1609.34,M5A 1A5,
364,7402,Wellington St W / Bathurst St - SMART,REGULAR,43.6426245,-79.4024594,0.0,Wellington St W / Bathurst St - SMART,15,"['KEY', 'CREDITCARD', 'TRANSITCARD', 'PHONE']",[],416-301-1293,1609.34,M5V 1C2,
365,7403,Lascelles Blvd / Eglinton Ave W - SMART,REGULAR,43.70547,-79.40355,0.0,Lascelles Blvd / Eglinton Ave W - SMART,19,"['KEY', 'CREDITCARD', 'TRANSITCARD', 'PHONE']",[],437-688-8714,1609.34,M4R 1A6,
366,7404,Roehampton Ave / Mount Pleasant Rd - SMART,REGULAR,43.70942,-79.39139,0.0,Roehampton Ave / Mount Pleasant Rd - SMART,19,"['KEY', 'CREDITCARD', 'TRANSITCARD', 'PHONE']",[],416-302-1740,1609.34,M4P 1R6,
367,7406,Victoria St / Queen St E,REGULAR,43.65294,-79.3783,0.0,Victoria St / Queen St E,23,"['KEY', 'CREDITCARD', 'TRANSITCARD', 'PHONE']",[],437-688-7984,1609.34,M5E 1L4,
368,7407,University Ave / Queen St W,REGULAR,43.65158,-79.38655,0.0,University Ave / Queen St W,23,"['KEY', 'CREDITCARD', 'TRANSITCARD', 'PHONE']",[],437-244-2537,1609.34,M5H 2N5,
369,7408,University Ave / Armoury St - SMART,REGULAR,43.65263,-79.38766,0.0,University Ave / Armoury St - SMART,23,"['KEY', 'CREDITCARD', 'TRANSITCARD', 'PHONE']",[],437-244-2536,1609.34,M5G 1S4,
370,7409,Isabella St / Church St - SMART,REGULAR,43.66834,-79.38235,0.0,Isabella St / Church St - SMART,17,"['KEY', 'CREDITCARD', 'TRANSITCARD', 'PHONE']",[],437-688-8748,1609.34,M4Y 1M9,
371,7410,Howard St / Rose Ave - SMART,REGULAR,43.671278,-79.372127,0.0,Howard St / Ontario St,19,"['KEY', 'CREDITCARD', 'TRANSITCARD', 'PHONE']",[],416-275-2509,1609.34,M4X 1J9,
372,7411,Little Norway Park,REGULAR,43.635023,-79.399505,0.0,Little Norway Park,22,"['KEY', 'CREDITCARD', 'TRANSITCARD', 'PHONE']",[],416-294-9839,1609.34,M5V 2Y9,
373,7412,King St W / Crawford St - SMART,REGULAR,43.6417852,-79.4131148,0.0,King St W / Crawford St - SMART,23,"['KEY', 'CREDITCARD', 'TRANSITCARD', 'PHONE']",['P7111-7412'],416-274-6829,1609.34,M6K 3M5,
374,7413,Dundas St W / Watkinson Ave - SMART,REGULAR,43.66478,-79.45991,0.0,Dundas St W / Watkinson Ave - SMART,15,"['KEY', 'CREDITCARD', 'TRANSITCARD', 'PHONE']",[],416-276-8993,1609.34,M6P 1Y1,
375,7414,Keele St / Annette St - SMART,REGULAR,43.66402,-79.46418,0.0,Keele St / Annette St - SMART,15,"['KEY', 'CREDITCARD', 'TRANSITCARD', 'PHONE']",[],416-294-0509,1609.34,M6P 2K9,
376,7415,Keele St / Vine Ave - SMART,REGULAR,43.66686,-79.46526,0.0,Keele St / Vine Ave - SMART,23,"['KEY', 'CREDITCARD', 'TRANSITCARD', 'PHONE']",[],416-276-9729,1609.34,M6P 3K2,
377,7416,Spadina Ave / Blue Jays Way,REGULAR,43.641705,-79.393295,0.0,Spadina Ave / Blue Jays Way,30,"['KEY', 'CREDITCARD', 'TRANSITCARD', 'PHONE']",[],437-688-3096,1609.34,M5V 0L7,
378,7417,King St W / Jordan St,REGULAR,43.648928,-79.378623,0.0,King St / Jordan St - SMART,11,"['KEY', 'CREDITCARD', 'TRANSITCARD', 'PHONE']",['P7417-7118'],647-448-1235,1609.34,M5H 1C3,
379,7418,College Park - Yonge St Entrance,REGULAR,43.65988,-79.38279,0.0,College Park - Yonge Entrance,25,"['KEY', 'CREDITCARD', 'TRANSITCARD', 'PHONE']",[],647-448-9452,1609.34,M5B 2H4,
380,7419,Bloor St W / Huron St,REGULAR,43.667023,-79.401805,0.0,Bloor St W / Huron St,26,"['KEY', 'CREDITCARD', 'TRANSITCARD', 'PHONE']",[],647-502-6478,1609.34,M5S 2R7,
381,7420,Barton St / Howland St - SMART,SMARTMAPFRAME,43.66842,-79.410585,0.0,Barton St / Howland St - SMART,20,"['KEY', 'TRANSITCARD', 'PHONE']",['SMART MAP FRAME'],437-243-6447,1609.34,M5R 3B5,
382,7422,Tyndall Ave / King St W - SMART,SMARTMAPFRAME,43.638426,-79.429142,0.0,Tyndall Ave / King St W - SMART,16,"['KEY', 'TRANSITCARD', 'PHONE']",['SMART MAP FRAME'],647-502-2010,1609.34,M6K 2E2,
383,7423,Merton St / Al Green Ln - SMART,REGULAR,43.696479,-79.394855,0.0,Merton St / Al Green Ln - SMART,23,"['KEY', 'CREDITCARD', 'TRANSITCARD', 'PHONE']",[],416-271-8851,1609.34,M4S 1A1,
384,7424,Merton St / Mount Pleasant Rd - SMART,REGULAR,43.697819,-79.38786,0.0,Merton St / Mount Pleasant Rd - SMART,23,"['KEY', 'CREDITCARD', 'TRANSITCARD', 'PHONE']",[],416-272-9253,1609.34,M4S 1A7,
385,7425,The Queensway at South Kingsway - SMART,REGULAR,43.63632,-79.47307,0.0,The Queensway at South Kingsway - SMART,23,"['KEY', 'CREDITCARD', 'TRANSITCARD', 'PHONE']",[],416-274-4381,1609.34,M6S 5B7,
386,7426,Fleet St / Garrison Rd (Fort York),REGULAR,43.636804,-79.408832,0.0,Fleet St / Garrison Rd (Fort York),37,"['KEY', 'CREDITCARD', 'TRANSITCARD', 'PHONE']",[],437-244-2457,1609.34,M5V 1A9,
387,7427,Northern Dancer Blvd / Lakeshore Blvd E,REGULAR,43.663162,-79.309765,0.0,Northern Dancer / Lakeshore Blvd E,26,"['KEY', 'CREDITCARD', 'TRANSITCARD', 'PHONE']",[],437-243-6512,1609.34,M4L 6T1,
388,7428,Woodbine Ave / Lake Shore Blvd E,REGULAR,43.665645,-79.304711,0.0,Woodbine Ave / Lakeshore Blvd E,27,"['KEY', 'CREDITCARD', 'TRANSITCARD', 'PHONE']",[],437-244-2713,1609.34,M4L 1B8,
389,7429,Woodbine Subway Station - SMART,SMARTMAPFRAME,43.686442,-79.313404,0.0,Woodbine Subway Station - SMART,15,"['KEY', 'TRANSITCARD', 'PHONE']","['SMART MAP FRAME', 'P7087-7429']",416-272-3861,1609.34,M4C 4C1,
390,7430,Marilyn Bell Park Tennis Court,REGULAR,43.633537,-79.437461,0.0,Marilyn Bell Park Tennis Court,27,"['KEY', 'CREDITCARD', 'TRANSITCARD', 'PHONE']",[],416-271-4978,1609.34,M6K 3C1,
391,7431,Gerrard St E / Leslie St - SMART,REGULAR,43.669813,-79.3335,0.0,Gerrard St E / Leslie St - SMART,22,"['KEY', 'CREDITCARD', 'TRANSITCARD', 'PHONE']",[],437-243-9031,1609.34,M4M 2A1,
392,7432,Frederick St / King St E,REGULAR,43.651118,-79.369411,0.0,Frederick St / King St E,23,"['KEY', 'CREDITCARD', 'TRANSITCARD', 'PHONE']",[],437-688-8434,1609.34,M5A 4L4,
393,7433,Dundas St E / Boulton Ave - SMART,SMARTMAPFRAME,43.663148,-79.347938,0.0,Dundas St E / Boulton Ave - SMART,15,"['KEY', 'TRANSITCARD', 'PHONE']",['SMART MAP FRAME'],437-243-9272,1609.34,M4M 2J6,
394,7434,Via Italia / Mackay Ave - SMART,REGULAR,43.676697,-79.445029,0.0,Via Italia / Mackay Ave - SMART,16,"['KEY', 'CREDITCARD', 'TRANSITCARD', 'PHONE']",[],416-276-3286,1609.34,M6H 3S2,
395,7435,Rushton Rd / St Clair Ave W - SMART,REGULAR,43.68114,-79.4277,0.0,Rushton Rd / St Clair Ave W - SMART,10,"['KEY', 'CREDITCARD', 'TRANSITCARD', 'PHONE']","['P7435-7146', 'P7459-7435']",647-448-3863,1609.34,M6G 3J4,
396,7436,Shaw St / Dupont St - SMART,REGULAR,43.67072,-79.42677,0.0,Shaw St / Dupont St - SMART,19,"['KEY', 'CREDITCARD', 'TRANSITCARD', 'PHONE']",[],416-277-9809,1609.34,M6G 1Z8,
397,7437,Concord Ave / Bloor St W - SMART,REGULARLITMAPFRAME,43.66189,-79.42679,0.0,Concord Ave / Bloor St W - SMART,15,"['KEY', 'CREDITCARD', 'TRANSITCARD', 'PHONE']",['P7152-7437'],437-243-9475,1609.34,M6H 1L1,
398,7438,High Park Subway - SMART,REGULAR,43.65389,-79.4675,0.0,High Park Subway - SMART,15,"['KEY', 'CREDITCARD', 'TRANSITCARD', 'PHONE']",[],416-278-4879,1609.34,M6P 2V9,
399,7440,Martin Goodman Trail / Ontario Dr,REGULAR,43.63121,-79.41414,0.0,Martin Goodman Trail / Ontario Dr,26,"['KEY', 'CREDITCARD', 'TRANSITCARD', 'PHONE']",[],437-688-8745,1609.34,12322,
400,7441,Pacific Ave / Glenlake Ave - SMART,REGULAR,43.65716,-79.46478,0.0,Pacific Ave / Glenlake Ave - SMART,27,"['KEY', 'CREDITCARD', 'TRANSITCARD', 'PHONE']",[],416-278-8627,1609.34,12445,
401,7442,Lonsdale Rd / Spadina Rd,REGULAR,43.688526,-79.412903,0.0,Lonsdale Rd / Spadina Rd,14,"['KEY', 'CREDITCARD', 'TRANSITCARD', 'PHONE']",[],416-274-4582,1609.34,M5T 2G7,
402,7443,Dundas St E / George St,REGULAR,43.6574766,-79.373446,0.0,Dundas St E / George St - SMART,24,"['KEY', 'CREDITCARD', 'TRANSITCARD', 'PHONE']",[],437-243-6629,1609.34,M6H 1N6,
403,7444,Clendenan Ave / Rowland St - SMART,SMARTMAPFRAME,43.66073,-79.47149,0.0,Clendenan Ave / Rowland St - SMART,20,"['KEY', 'TRANSITCARD', 'PHONE']",['SMART MAP FRAME'],437-243-6516,1609.34,M6P 2X6,
404,7445,Eastwood Rd / Coxwell Ave - SMART,REGULAR,43.673118,-79.318651,0.0,Eastwood Rd / Coxwell Ave - SMART,19,"['KEY', 'CREDITCARD', 'TRANSITCARD', 'PHONE']",[],437-244-2762,1609.34,M4L 3B5,
405,7446,Orchard Park,REGULAR,43.66908,-79.3149,0.0,Orchard Park,16,"['KEY', 'CREDITCARD', 'TRANSITCARD', 'PHONE']",[],437-244-2385,1609.34,M4L 1M7,
406,7447,Trent Ave / Danforth Ave - SMART,REGULAR,43.689293,-79.295895,0.0,Trent Ave / Danforth Ave - SMART,23,"['KEY', 'CREDITCARD', 'TRANSITCARD', 'PHONE']",['P7482-7447'],437-244-2458,1609.34,M4C 1M2,
407,7448,Goodwood Park Ct / Dentonia Park - SMART,REGULAR,43.694826,-79.295208,0.0,Goodwood Park Ct / Dentonia Park - SMART,19,"['KEY', 'CREDITCARD', 'TRANSITCARD', 'PHONE']",[],437-244-2392,1609.34,M4C2G5,
408,7449,Cosburn Ave / Cedarvale Ave - SMART,REGULAR,43.697139,-79.31469,0.0,Cosburn Ave / Cedarvale Ave - SMART,15,"['KEY', 'CREDITCARD', 'TRANSITCARD', 'PHONE']",[],437-244-1847,1609.34,M4C 4K7,
409,7450,Carlaw Ave / Danforth Ave - SMART,REGULAR,43.678285,-79.347346,0.0,Carlaw Ave / Danforth Ave - SMART,15,"['KEY', 'CREDITCARD', 'TRANSITCARD', 'PHONE']",['P7094-7450'],437-244-2674,1609.34,M4K 1P7,
410,7451,Western Battery Rd / Pirandello St - SMART,REGULAR,43.640075,-79.414156,0.0,Western Battery Rd / Pirandello St,31,"['KEY', 'CREDITCARD', 'TRANSITCARD', 'PHONE']",[],437-244-2559,1609.34,M6K 3S4,
411,7452,Bleecker St / St James Ave,REGULAR,43.669232,-79.374495,0.0,Bleecker St / St James Ave,20,"['KEY', 'CREDITCARD', 'TRANSITCARD', 'PHONE']",[],437-244-2078,1609.34,M4X 1M2,
412,7453,Jarvis St / Maitland Pl,REGULAR,43.664736,-79.377579,0.0,Jarvis St / Maitland Pl,17,"['KEY', 'CREDITCARD', 'TRANSITCARD', 'PHONE']",[],437-243-6154,1609.34,M4Y 2G8,
413,7454,Pottery Rd / Lower Don River Trail - SMART,REGULAR,43.688148,-79.362101,0.0,Pottery Rd / Lower Don River Trail - SMART,15,"['KEY', 'CREDITCARD', 'TRANSITCARD', 'PHONE']",[],437-244-2781,1609.34,M4K 2B9,
414,7455,E.T. Seaton Park (Eglinton Ave E / Leslie St),REGULAR,43.715951,-79.351246,0.0,E.T. Seaton Park (Eglinton Ave E / Leslie St),27,"['KEY', 'CREDITCARD', 'TRANSITCARD', 'PHONE']",[],437-243-9385,1609.34,M4P 1A2,
415,7456,Belmont St / Davenport Rd - SMART,SMARTMAPFRAME,43.674788,-79.392492,0.0,Belmont St / Davenport Rd - SMART,11,"['KEY', 'TRANSITCARD', 'PHONE']","['SMART MAP FRAME', 'P7456-7494']",437-243-6382,1609.34,M5R 1P8,
416,7457,Queen's Park Cres W / Hoskin Ave,REGULAR,43.665221,-79.394009,0.0,Queen's Park Cres W / Hoskin Ave,23,"['KEY', 'CREDITCARD', 'TRANSITCARD', 'PHONE']",[],437-243-6418,1609.34,M5S 1H7,
417,7458,Church St / Lombard St,REGULAR,43.651678,-79.375233,0.0,Church St / Lombard St,11,"['KEY', 'CREDITCARD', 'TRANSITCARD', 'PHONE']",['P7458-7050'],437-244-2438,1609.34,M5C 3H9,
418,7459,St Clair Ave W / Winona Ave - SMART,REGULAR,43.680466,-79.432522,0.0,St Clair Ave W / Winona Ave - SMART,11,"['KEY', 'CREDITCARD', 'TRANSITCARD', 'PHONE']",['P7459-7435'],437-244-2434,1609.34,M6C 1C2,
419,7460,High Park Outdoor Pool,REGULAR,43.649217,-79.465319,0.0,High Park Outdoor Pool,27,"['KEY', 'CREDITCARD', 'TRANSITCARD', 'PHONE']",[],437-244-2149,1609.34,M6R 2Z3,
420,7461,High Park Amphitheatre,REGULAR,43.645653,-79.464366,0.0,High Park Amphitheatre,23,"['KEY', 'CREDITCARD', 'TRANSITCARD', 'PHONE']",['P7084-7461'],437-244-2557,17702.739999999998,M6R 2Z3,
421,7462,Richmond St E / Yonge St,REGULAR,43.651838,-79.378743,0.0,Richmond St E / Yonge St,17,"['KEY', 'CREDITCARD', 'TRANSITCARD', 'PHONE']",['P7275-7462'],437-243-6481,1609.34,M5C 1X7,
422,7463,Adelaide St W / Brant St,REGULAR,43.6462574,-79.3973381,0.0,Adelaide St W / Brant St,17,"['KEY', 'CREDITCARD', 'TRANSITCARD', 'PHONE']",[],437-244-1537,1609.34,M5V 1S4,
423,7465,Russell Hill Rd / St Clair Ave W - SMART,REGULAR,43.685569,-79.408019,0.0,Russell Hill Rd / St Clair Ave W - SMART,19,"['KEY', 'CREDITCARD', 'TRANSITCARD', 'PHONE']",[],437-244-2514,1609.34,M4V 1R8,
424,7466,Glendonwynne Ave / Bloor St W - SMART,REGULAR,43.65182,-79.47421,0.0,Glendonwynne Ave / Bloor St W - SMART,19,"['KEY', 'CREDITCARD', 'TRANSITCARD', 'PHONE']",[],437-244-2085,1609.34,M6S 1N3,
425,7467,Lower Simcoe St / Bremner Blvd,REGULAR,43.64283,-79.38409,0.0,Lower Simcoe St / Bremner Blvd,15,"['KEY', 'CREDITCARD', 'TRANSITCARD', 'PHONE']",[],437-244-2849,1609.34,M5J 3A6,
426,7468,Front St / Simcoe St,REGULAR,43.6442,-79.38702,0.0,Front St / Simcoe St,17,"['KEY', 'CREDITCARD', 'TRANSITCARD', 'PHONE']",[],437-244-2882,1609.34,M5V 2W6,
427,7469,Wellington St W / York St,REGULAR,43.646734,-79.38301,0.0,Wellington St W / York St,23,"['KEY', 'CREDITCARD', 'TRANSITCARD', 'PHONE']",[],437-244-2670,1609.34,M5J 2R2,
428,7470,York St / Lakeshore Blvd W,REGULAR,43.64196,-79.380806,0.0,York St / Lakeshore Blvd W,18,"['KEY', 'CREDITCARD', 'TRANSITCARD', 'PHONE']","['P7070-7470', 'P7006-7235']",437-241-6126,1609.34,M5J 0A3,
429,7471,Lakeshore Blvd W / Louisa St - SMART,REGULAR,43.61868,-79.48674,0.0,Lakeshore Blvd W / Louisa St - SMART,15,"['KEY', 'CREDITCARD', 'TRANSITCARD', 'PHONE']",[],437-241-5670,1609.34,M8V 1B4,
430,7472,Dundas St E / Victoria St,REGULAR,43.656333,-79.379114,0.0,Dundas St E / Victoria St,40,"['KEY', 'CREDITCARD', 'TRANSITCARD', 'PHONE']",[],437-244-1547,1609.34,M5B 1B8,
431,7473,Adelaide St W / Strachan Ave,REGULAR,43.643253094827294,-79.41230469904167,0.0,Adelaide St W / Strachan Ave,17,"['KEY', 'CREDITCARD', 'TRANSITCARD', 'PHONE']",[],437-244-1546,1609.34,M6J 2S7,
432,7474,Clarence Square,REGULAR,43.64407,-79.3929,0.0,Clarence Square,23,"['KEY', 'CREDITCARD', 'TRANSITCARD', 'PHONE']",[],437-244-1303,1609.34,M5V 1H1,
433,7475,Jarvis St / Richmond St E,REGULAR,43.652777,-79.372637,0.0,Jarvis St / Richmond St E,19,"['KEY', 'CREDITCARD', 'TRANSITCARD', 'PHONE']",[],437-241-5732,1609.34,M5C 2H6,
434,7476,Symington Ave / Dupont St - SMART,REGULAR,43.665538,-79.451263,0.0,Symington Ave / Dupont St - SMART,15,"['KEY', 'CREDITCARD', 'TRANSITCARD', 'PHONE']",[],437-243-9512,1609.34,M6P 3S3,
435,7477,Antler St / Campbell Ave - SMART,SMARTMAPFRAME,43.664182,-79.449066,0.0,Antler St / Campbell Ave - SMART,20,"['KEY', 'TRANSITCARD', 'PHONE']",['SMART MAP FRAME'],437-241-5622,1609.34,M6P 3V5,
436,7478,Ellis Ave / The Queensway,REGULAR,43.63855,-79.46693,0.0,Ellis Ave / The Queensway,19,"['KEY', 'CREDITCARD', 'TRANSITCARD', 'PHONE']",[],437-244-1121,1609.34,M6S 2X1,
437,7479,Jane St / Bloor St W (Jane Subway Station),REGULAR,43.64976,-79.48477,0.0,Jane St / Bloor St W (Jane Subway Station),15,"['KEY', 'CREDITCARD', 'TRANSITCARD', 'PHONE']",[],437-244-2417,1609.34,M6S 3Y2,
438,7480,Neil McLellan Park - SMART,REGULAR,43.65143,-79.47779,0.0,Neil McLellan Park - SMART,14,"['KEY', 'CREDITCARD', 'TRANSITCARD', 'PHONE']",[],437-241-5714,1609.34,M6S 3B4,
439,7481,Westmount Ave / St Clair Ave W - SMART,REGULAR,43.67851,-79.44215,0.0,Westmount Ave / St Clair Ave W - SMART,16,"['KEY', 'CREDITCARD', 'TRANSITCARD', 'PHONE']",[],437-243-9638,1609.34,M6E 1B1,
440,7482,Danforth Ave / Sibley Ave - SMART,REGULAR,43.690111,-79.292634,0.0,Danforth Ave / Sibley Ave - SMART,11,"['KEY', 'CREDITCARD', 'TRANSITCARD', 'PHONE']",['P7482-7447'],437-243-9540,1609.34,M4C 1M9,
441,7483,Southwood Dr / Kingston Rd - SMART,SMARTMAPFRAME,43.678685,-79.297974,0.0,Southwood Dr / Kingston Rd - SMART,12,"['KEY', 'TRANSITCARD', 'PHONE']","['SMART MAP FRAME', 'P7483-7486']",437-243-8986,1609.34,M4E 1R3,
442,7484,Briar Hill Ave / Yonge St - SMART,SMARTMAPFRAME,43.713524,-79.400162,0.0,Briar Hill Ave / Yonge St - SMART,20,"['KEY', 'TRANSITCARD', 'PHONE']",['SMART MAP FRAME'],437-243-5891,1609.34,M4P 2J2,
443,7485,Blythwood Rd / Yonge St - SMART,SMARTMAPFRAME,43.716652,-79.399993,0.0,Blythwood Rd / Yonge St - SMART,16,"['KEY', 'TRANSITCARD', 'PHONE']",['SMART MAP FRAME'],437-244-1061,1609.34,M4P 2J6,
444,7486,Gerrard St E / Ted Reeve Dr,REGULAR,43.684261,-79.299332,0.0,Gerrard St E / Ted Reeve Dr,22,"['KEY', 'CREDITCARD', 'TRANSITCARD', 'PHONE']",['P7483-7486'],437-241-6030,1609.34,M4E 2E1,
445,7487,Eastwood Rd / Woodbine Ave - SMART,SMARTMAPFRAME,43.676216,-79.309395,0.0,Eastwood Rd / Woodbine Ave - SMART,15,"['KEY', 'TRANSITCARD', 'PHONE']",['SMART MAP FRAME'],437-243-9359,1609.34,M4E 2H8,
446,7488,Summerhill Ave / Maclennan Ave,REGULAR,43.685924,-79.376304,0.0,Summerhill Ave / Maclennan Ave,11,"['KEY', 'CREDITCARD', 'TRANSITCARD', 'PHONE']","['P7277-7488', 'P7488-7277']",437-243-9051,1609.34,M4M 2Z9,
447,7489,Sumach St  / Queen St E,REGULAR,43.656638,-79.358749,0.0,Sumach St  / Queen St E,19,"['KEY', 'CREDITCARD', 'TRANSITCARD', 'PHONE']",[],437-241-6394,1609.34,M5A 1V1,
448,7491,D'Arcy St / Spadina Ave - SMART,REGULAR,43.654074,-79.398115,0.0,D'Arcy St / Spadina Ave - SMART,17,"['KEY', 'CREDITCARD', 'TRANSITCARD', 'PHONE']",[],437-241-5535,1609.34,M5T 2E9,
449,7492,Lakeshore Blvd E / Bonnycastle St - SMART,REGULAR,43.646752,-79.364303,0.0,Lakeshore Blvd E / Bonnycastle St - SMART,19,"['KEY', 'CREDITCARD', 'TRANSITCARD', 'PHONE']",[],437-243-9407,1609.34,M5A 3T7,
450,7493,Sackville St / Eastern Ave - SMART,SMARTMAPFRAME,43.653809,-79.3595,0.0,Sackville St / Eastern Ave - SMART,12,"['KEY', 'TRANSITCARD', 'PHONE']","['SMART MAP FRAME', 'P7493-7108']",437-243-9049,1609.34,M5A 3E1,
451,7494,Davenport Rd / McAlpine St - SMART,SMARTMAPFRAME,43.673768,-79.391253,0.0,Davenport Rd / McAlpine St - SMART,12,"['KEY', 'TRANSITCARD', 'PHONE']","['SMART MAP FRAME', 'P7456-7494', 'P7494-7127']",437-243-6475,1609.34,M5R 1H4,
452,7496,Sunnyside Ave / The Queensway - SMART,SMARTMAPFRAME,43.6397,-79.44865,0.0,Sunnyside Ave / The Queensway - SMART,20,"['KEY', 'TRANSITCARD', 'PHONE']",['SMART MAP FRAME'],437-243-9725,1609.34,M6R 1B4,
453,7497,128 Sterling Ave - SMART,SMARTMAPFRAME,43.654004,-79.444792,0.0,128 Sterling Ave - SMART,20,"['KEY', 'TRANSITCARD', 'PHONE']",['SMART MAP FRAME'],437-241-6264,1609.34,M6P 0A1,
454,7501,Humberside Grounds - SMART,SMARTMAPFRAME,43.65917,-79.46997,0.0,Humberside Grounds - SMART,20,"['KEY', 'TRANSITCARD', 'PHONE']",['SMART MAP FRAME'],437-243-9655,1609.34,M6P 3G4,Glendonwynne Rd. / Quebec Ave.
455,7502,University Ave / College St (East),REGULAR,43.65995,-79.38964,0.0,University Ave / College St (East),14,"['KEY', 'CREDITCARD', 'TRANSITCARD', 'PHONE']","['P7274-7502', 'P7062-7502']",437-241-6388,1609.34,M5G 1L7,
456,7503,Gerrard St E / Malvern Ave - SMART,SMARTMAPFRAME,43.685221,-79.294766,0.0,Gerrard St E / Malvern Ave - SMART,20,"['KEY', 'TRANSITCARD', 'PHONE']",['SMART MAP FRAME'],437-242-7296,1609.34,M4E 2E1,
457,7504,Gerrard St E / Victoria Park Ave - SMART,SMARTMAPFRAME,43.686962,-79.286864,0.0,Gerrard St E / Victoria Park Ave - SMART,15,"['KEY', 'TRANSITCARD', 'PHONE']",['SMART MAP FRAME'],437-242-8058,1609.34,M4E 3T6,
458,7505,Ontario St / Adelaide St E -SMART,SMARTMAPFRAME,43.652458,-79.366433,0.0,Ontario St / Adelaide St E -SMART,19,"['KEY', 'TRANSITCARD', 'PHONE']",['SMART MAP FRAME'],437-243-9011,1609.34,M5A 1N5,
459,7506,Berkeley St / Adelaide St E - SMART,SMARTMAPFRAME,43.653359,-79.365023,0.0,Berkeley St / Adelaide St E - SMART,12,"['KEY', 'TRANSITCARD', 'PHONE']","['SMART MAP FRAME', 'P7506-7356']",437-688-8179,1609.34,M5A 2W7,
460,7508,Berkeley St / Dundas St E - SMART,SMARTMAPFRAME,43.658816,-79.367318,0.0,Berkeley St / Dundas St E - SMART,17,"['KEY', 'TRANSITCARD', 'PHONE']","['SMART MAP FRAME', 'P7109-7508']",437-243-9390,1609.34,M5A 2A7,
461,7509,Ontario St / King St E,REGULAR,43.651814,-79.366194,0.0,Ontario St / King St E,19,"['KEY', 'CREDITCARD', 'TRANSITCARD', 'PHONE']",[],437-241-5483,500.0,,
462,7510,Princes' Blvd / Nunavut Rd,REGULAR,43.633225,-79.414319,0.0,Princes' Blvd / Nunavut Rd,18,"['KEY', 'CREDITCARD', 'TRANSITCARD', 'PHONE']",[],437-241-4560,1609.34,M6K 3C3,
